{"type": "FeatureCollection", "features": [{"type": "Feature", "geometry": {"type": "Polygon", "coordinates": [[[128.580361, 37.8280011], [128.5806092, 37.827024], [128.5804837, 37.8261493], [128.5805105, 37.8260741], [128.5811209, 37.8253714], [128.5813567, 37.8248159], [128.5815748, 37.8233398], [128.5817699, 37.8228037], [128.5827355, 37.8213851], [128.5827737, 37.8213471], [128.5841343, 37.8201634], [128.584836, 37.8191717], [128.5854961, 37.8185409], [128.5876686, 37.8176224], [128.5896041, 37.816716], [128.5919183, 37.8160378], [128.5943964, 37.8138434], [128.5956046, 37.8125236], [128.5969954, 37.8115732], [128.5979484, 37.8100334], [128.5989018, 37.8092713], [128.5999639, 37.808816], [128.5992679, 37.8063053], [128.5986306, 37.8057447], [128.5981492, 37.804378], [128.5983679, 37.8035108], [128.5988047, 37.8030378], [128.5997407, 37.8028872], [128.6006071, 37.8023467], [128.6009393, 37.8017389], [128.600945, 37.8005401], [128.6006842, 37.7995693], [128.6012493, 37.7979046], [128.6009507, 37.7964267], [128.6008884, 37.795449], [128.6015869, 37.793769], [128.6011202, 37.792788], [128.600466, 37.7921303], [128.5997861, 37.7916102], [128.5999834, 37.7904787], [128.6002837, 37.7896145], [128.5999867, 37.7887194], [128.6006347, 37.7880592], [128.6010317, 37.7871692], [128.6011098, 37.7833395], [128.601303, 37.7824143], [128.6014103, 37.7813332], [128.6008455, 37.7810355], [128.6009915, 37.780105], [128.5999999, 37.7793401], [128.599111, 37.7772613], [128.5988029, 37.7745914], [128.5987924, 37.7745013], [128.6002084, 37.7718758], [128.6010268, 37.7706676], [128.6016663, 37.7699301], [128.6024446, 37.7693483], [128.6039374, 37.7691684], [128.605633, 37.7685984], [128.6066921, 37.7683734], [128.6075845, 37.7678722], [128.6079983, 37.767], [128.6092791, 37.7663246], [128.6097199, 37.7663045], [128.6104011, 37.7662063], [128.6105585, 37.7668564], [128.6107533, 37.7672079], [128.6117504, 37.7676757], [128.6130009, 37.7695394], [128.6140255, 37.7705392], [128.6147002, 37.7705758], [128.6152, 37.769846], [128.616122, 37.7693714], [128.6181091, 37.7697304], [128.6195963, 37.7692835], [128.622611, 37.770447], [128.623625, 37.7695862], [128.6256199, 37.7705457], [128.6270613, 37.7727369], [128.6274926, 37.7729004], [128.6295861, 37.772559], [128.630471, 37.7729457], [128.6306956, 37.7738063], [128.6314349, 37.7743645], [128.6317774, 37.7765401], [128.6331359, 37.7783518], [128.6332353, 37.7794005], [128.6338641, 37.7802709], [128.6349577, 37.7812754], [128.6364194, 37.7817563], [128.6366923, 37.7822592], [128.6373395, 37.7824636], [128.6389837, 37.7824366], [128.6389811, 37.7820154], [128.6394722, 37.780206], [128.6409188, 37.77909], [128.6423678, 37.7786439], [128.6430915, 37.7773196], [128.6433319, 37.7771857], [128.645055, 37.7771082], [128.6476927, 37.776211], [128.6498164, 37.7745764], [128.6503863, 37.7737925], [128.6514148, 37.7737762], [128.6528638, 37.7730822], [128.6530882, 37.7726829], [128.6537818, 37.7727087], [128.655695, 37.7714251], [128.6574829, 37.7713029], [128.6584373, 37.7719882], [128.6598098, 37.7711632], [128.6606274, 37.7705163], [128.6629582, 37.7703441], [128.6657833, 37.7702955], [128.6660626, 37.7702589], [128.6673754, 37.769795], [128.6692637, 37.7683167], [128.6693793, 37.7680789], [128.6698517, 37.7675137], [128.6708474, 37.7668766], [128.6713462, 37.7678483], [128.6724423, 37.7685529], [128.6736218, 37.7694821], [128.6736309, 37.7698539], [128.6751253, 37.7704326], [128.6761756, 37.7710378], [128.6769698, 37.7709502], [128.6772241, 37.771265], [128.6785211, 37.7719732], [128.6787131, 37.7721512], [128.6787462, 37.7724736], [128.6792628, 37.7729049], [128.6798416, 37.7730323], [128.6819882, 37.7725226], [128.6826787, 37.7728671], [128.6839887, 37.7726891], [128.6848534, 37.7730512], [128.6872149, 37.7723387], [128.688218, 37.7710045], [128.6895617, 37.7708319], [128.6909724, 37.7697205], [128.6930396, 37.770186], [128.6945765, 37.7702433], [128.6952819, 37.7703511], [128.695969, 37.7708241], [128.6967565, 37.769839], [128.6972993, 37.7700313], [128.6983717, 37.7713337], [128.700252, 37.7705414], [128.7032338, 37.7699351], [128.7032685, 37.768925], [128.7040719, 37.7683783], [128.7061065, 37.768781], [128.7088999, 37.7680497], [128.7100234, 37.7668034], [128.7106121, 37.7665114], [128.7115323, 37.765046], [128.7105327, 37.7647258], [128.710098, 37.7637268], [128.7120923, 37.7631387], [128.7135803, 37.7625255], [128.7135891, 37.7616934], [128.7151648, 37.7604253], [128.7151735, 37.7599458], [128.715958, 37.7589352], [128.7175766, 37.7575213], [128.7180555, 37.7560726], [128.7187015, 37.7561449], [128.7202262, 37.7559647], [128.7207682, 37.7556026], [128.7213762, 37.7556487], [128.7223632, 37.755134], [128.7233654, 37.7538883], [128.722778, 37.7531142], [128.723318, 37.7524572], [128.7231336, 37.7513228], [128.7241484, 37.7503773], [128.7249124, 37.7500404], [128.7253628, 37.7494958], [128.7278722, 37.7486202], [128.7302979, 37.7479461], [128.7318833, 37.747699], [128.7337403, 37.7462974], [128.7341067, 37.7457146], [128.7358626, 37.7450554], [128.7359572, 37.744297], [128.738066, 37.7425084], [128.739663, 37.7416274], [128.7417683, 37.742031], [128.743799, 37.741432], [128.7442505, 37.7391414], [128.7441675, 37.7356312], [128.7447813, 37.7340516], [128.7449956, 37.7317636], [128.7448581, 37.7311635], [128.7440051, 37.7300342], [128.7440267, 37.7287927], [128.744649, 37.72779], [128.7456713, 37.7267679], [128.7447847, 37.7248881], [128.7445544, 37.7234394], [128.7451165, 37.7225211], [128.7452371, 37.7223241], [128.7479432, 37.7202771], [128.7484789, 37.7199521], [128.7469084, 37.7183468], [128.7469803, 37.717803], [128.7471608, 37.7170509], [128.7474631, 37.715421], [128.7479834, 37.7144747], [128.7478254, 37.7140967], [128.7478921, 37.7140256], [128.7484792, 37.713398], [128.7488853, 37.7129639], [128.7505133, 37.712241], [128.7521453, 37.7114187], [128.7531824, 37.7107077], [128.7533796, 37.708595], [128.7549351, 37.7075519], [128.7539905, 37.7068357], [128.7539326, 37.7053997], [128.7550891, 37.7040884], [128.7552533, 37.7036727], [128.7546784, 37.7021315], [128.7543884, 37.7008599], [128.7545603, 37.6996452], [128.754968, 37.6988294], [128.7556025, 37.6977736], [128.7572331, 37.6947599], [128.7577631, 37.6943731], [128.7582777, 37.6944811], [128.7585847, 37.6941733], [128.7587815, 37.6933438], [128.759131, 37.6926579], [128.7588976, 37.6923306], [128.7587303, 37.6919066], [128.7586369, 37.6913892], [128.7593058, 37.689696], [128.7592825, 37.6881964], [128.7591729, 37.6878782], [128.7593035, 37.6869428], [128.7592718, 37.6865421], [128.7594286, 37.6862669], [128.761001, 37.6863857], [128.7611936, 37.6859028], [128.7611184, 37.6849234], [128.7607559, 37.6839863], [128.7607114, 37.6828364], [128.7620008, 37.6817147], [128.7639545, 37.6807013], [128.7635135, 37.6800322], [128.7633, 37.678955], [128.7633976, 37.6779316], [128.7639211, 37.6771684], [128.7641807, 37.6767009], [128.7642743, 37.6760315], [128.7647632, 37.6745405], [128.7647521, 37.6739526], [128.7651105, 37.6735157], [128.7650279, 37.6729173], [128.7644169, 37.6725846], [128.7623761, 37.6724037], [128.7617807, 37.6718341], [128.7606225, 37.6712765], [128.7592489, 37.6714023], [128.7583929, 37.6713917], [128.7570675, 37.6708444], [128.75613, 37.6703331], [128.7552692, 37.6703712], [128.7530242, 37.6697852], [128.7524662, 37.6697797], [128.7520607, 37.6685569], [128.7518562, 37.6682066], [128.7518861, 37.6675767], [128.7506027, 37.6668691], [128.7498408, 37.6668362], [128.7494919, 37.6665768], [128.7478625, 37.6664421], [128.7472707, 37.6664872], [128.745759, 37.6650277], [128.746135, 37.6645531], [128.745981, 37.6636188], [128.7452879, 37.6631608], [128.7452007, 37.663116], [128.7447922, 37.6629058], [128.7446611, 37.6617228], [128.7441248, 37.6613535], [128.7436496, 37.6602913], [128.7437767, 37.659475], [128.7436674, 37.6588282], [128.7427251, 37.6584497], [128.7414059, 37.6575773], [128.7392959, 37.6574756], [128.7373684, 37.6567582], [128.7366759, 37.6566409], [128.73587, 37.6562462], [128.7347489, 37.6554375], [128.734241, 37.655157], [128.7334701, 37.6548969], [128.7334735, 37.6545433], [128.7329379, 37.6534783], [128.7331228, 37.6527816], [128.7329193, 37.6520079], [128.7317675, 37.6497842], [128.7323306, 37.6490017], [128.7327726, 37.6485007], [128.7337693, 37.6468351], [128.7333396, 37.6464129], [128.7326196, 37.6456719], [128.7322637, 37.6453055], [128.7312969, 37.6435534], [128.7310551, 37.6433086], [128.7306292, 37.6419526], [128.7306431, 37.6403359], [128.7302689, 37.6399255], [128.7299365, 37.6398006], [128.7295883, 37.6395487], [128.7289799, 37.6387007], [128.7286318, 37.6379307], [128.7286974, 37.6368042], [128.7292318, 37.6363223], [128.73007, 37.6344855], [128.7317197, 37.634063], [128.7323956, 37.6331814], [128.7329304, 37.6328149], [128.7334325, 37.632014], [128.7339342, 37.6313892], [128.7345505, 37.6309342], [128.7346005, 37.630621], [128.7352356, 37.6299799], [128.7353912, 37.6295044], [128.7358346, 37.628704], [128.7360158, 37.627683], [128.7358917, 37.6275393], [128.7356461, 37.6265342], [128.736192, 37.6262971], [128.7363012, 37.6257386], [128.7360827, 37.624777], [128.7360958, 37.6237997], [128.7362173, 37.6231484], [128.7360068, 37.6226504], [128.7360584, 37.6204568], [128.7359512, 37.6197574], [128.7364176, 37.6192796], [128.7365034, 37.6186348], [128.7361962, 37.6180371], [128.7363192, 37.6175446], [128.7368161, 37.6167693], [128.7367801, 37.6153878], [128.7369982, 37.6149201], [128.7371038, 37.614025], [128.7365478, 37.6135391], [128.7362416, 37.6128207], [128.7362723, 37.6126012], [128.7359156, 37.6122233], [128.7364155, 37.6114994], [128.736351, 37.6111302], [128.7366575, 37.6102332], [128.7365599, 37.6097499], [128.7359682, 37.6095652], [128.7355151, 37.6090871], [128.7339744, 37.6090585], [128.733239, 37.6091962], [128.7322446, 37.6092713], [128.731127, 37.609406], [128.7305039, 37.6095167], [128.7290645, 37.609937], [128.7283357, 37.6100845], [128.7273455, 37.6099605], [128.7264352, 37.6103508], [128.7254205, 37.6104239], [128.7244945, 37.6103684], [128.7241973, 37.6106926], [128.723404, 37.6112511], [128.7230244, 37.6113164], [128.7223315, 37.610333], [128.7214004, 37.609625], [128.7209351, 37.6093818], [128.7202055, 37.608864], [128.7197695, 37.6082462], [128.7195301, 37.6077768], [128.7190632, 37.6074474], [128.7183796, 37.6068037], [128.7173639, 37.6055519], [128.7169741, 37.6049294], [128.7166521, 37.6042686], [128.7166645, 37.6022949], [128.7167463, 37.6009418], [128.7166247, 37.599576], [128.7167163, 37.5988475], [128.7165985, 37.5982636], [128.7165649, 37.5977557], [128.7164319, 37.5972325], [128.7162749, 37.5954823], [128.7163524, 37.595066], [128.7163456, 37.5933823], [128.7162203, 37.5932858], [128.7158843, 37.5931665], [128.7154023, 37.592856], [128.7142995, 37.592423], [128.7139071, 37.5922065], [128.7136098, 37.5921064], [128.7131223, 37.5918466], [128.7124874, 37.5913108], [128.712071, 37.5908664], [128.7119437, 37.5897548], [128.7120427, 37.5892111], [128.7120731, 37.5886364], [128.7113001, 37.5886082], [128.710579, 37.5884342], [128.7090461, 37.5885411], [128.7083303, 37.5886306], [128.7070014, 37.5889215], [128.7061974, 37.5891913], [128.7053717, 37.589396], [128.7044258, 37.5897717], [128.7034421, 37.5899996], [128.7031641, 37.59067], [128.703278, 37.590822], [128.7027844, 37.5911163], [128.7018674, 37.5918328], [128.7017927, 37.5919848], [128.7014571, 37.5920237], [128.7011365, 37.5922079], [128.7005562, 37.5924381], [128.6999121, 37.5929758], [128.6992446, 37.5933697], [128.6989228, 37.5935159], [128.6985448, 37.5934161], [128.6973307, 37.5926289], [128.6969396, 37.5925898], [128.6953308, 37.5921053], [128.6950107, 37.5922489], [128.6942992, 37.5924188], [128.6931817, 37.5925027], [128.6926718, 37.5921901], [128.6919714, 37.5920377], [128.6912586, 37.5921665], [128.6903536, 37.592388], [128.6895232, 37.5927617], [128.689228, 37.5928005], [128.6879459, 37.5926941], [128.6871135, 37.5930126], [128.6863193, 37.5931278], [128.6849139, 37.5937059], [128.6841044, 37.5938252], [128.6837196, 37.5922201], [128.6840621, 37.591985], [128.6842707, 37.5911447], [128.6840711, 37.5900423], [128.6838148, 37.5894207], [128.6835962, 37.5886533], [128.6833466, 37.5884248], [128.6834451, 37.5879294], [128.6831544, 37.58688], [128.6830575, 37.5861421], [128.6828129, 37.5855229], [128.6829006, 37.5849059], [128.6827358, 37.5845313], [128.682652, 37.5834348], [128.6824199, 37.5827078], [128.6826783, 37.5820071], [128.6819889, 37.5811467], [128.6817231, 37.5805413], [128.6815265, 37.5797558], [128.6815547, 37.5791557], [128.6814937, 37.5789573], [128.6815457, 37.5782336], [128.6816606, 37.5778249], [128.6817977, 37.5775025], [128.6816063, 37.5772485], [128.681423, 37.5766022], [128.6817917, 37.5762746], [128.681793, 37.575939], [128.6816308, 37.5753465], [128.6813579, 37.574789], [128.6814349, 37.5738251], [128.680698, 37.5733786], [128.6805735, 37.5729389], [128.6803231, 37.5722905], [128.6803549, 37.5718818], [128.679668, 37.5708423], [128.6791826, 37.5704413], [128.6789637, 37.5698611], [128.6791772, 37.5690315], [128.6789408, 37.5676737], [128.6788779, 37.5670608], [128.6795707, 37.566174], [128.6818562, 37.5649625], [128.6826512, 37.5641727], [128.6835763, 37.5634146], [128.6837384, 37.5627775], [128.6841694, 37.5617961], [128.6840902, 37.5609034], [128.6839091, 37.5597044], [128.6836463, 37.5593273], [128.683512, 37.5588889], [128.6833858, 37.5586708], [128.6833792, 37.5582522], [128.6834966, 37.5571487], [128.6846903, 37.5561984], [128.6850287, 37.5559934], [128.6859171, 37.555762], [128.6859472, 37.5555451], [128.6861744, 37.5553005], [128.6863899, 37.5549599], [128.6867093, 37.5548698], [128.6877585, 37.5543221], [128.6881472, 37.5536029], [128.6882252, 37.5533163], [128.6885502, 37.5528474], [128.6890449, 37.5525487], [128.6894557, 37.5511163], [128.6895006, 37.5505529], [128.6897265, 37.5496395], [128.6897669, 37.5493008], [128.6913599, 37.547376], [128.6917326, 37.5460757], [128.6919187, 37.5457681], [128.6926232, 37.5440075], [128.692693, 37.5431244], [128.6933435, 37.5429166], [128.6935671, 37.5426418], [128.6940538, 37.5412452], [128.6947996, 37.5410025], [128.6960037, 37.5402907], [128.696731, 37.5388878], [128.6976844, 37.537777], [128.6983319, 37.5373144], [128.6990079, 37.5366457], [128.6997794, 37.5365405], [128.7000059, 37.536287], [128.7008364, 37.5360571], [128.7016477, 37.5353692], [128.7024296, 37.5352372], [128.7036028, 37.5352484], [128.7042467, 37.5350649], [128.7048498, 37.534148], [128.705885, 37.5329439], [128.7068323, 37.5324555], [128.7070964, 37.5321919], [128.7089146, 37.5318089], [128.7100662, 37.5315245], [128.7107097, 37.5315892], [128.7118389, 37.5315318], [128.7127949, 37.5316142], [128.7141304, 37.5316128], [128.7152258, 37.5312189], [128.7161833, 37.5311813], [128.7171589, 37.5310078], [128.7187754, 37.5299396], [128.7197816, 37.5287129], [128.7208564, 37.5291818], [128.7223686, 37.5313346], [128.7227123, 37.5330004], [128.7224904, 37.5341441], [128.7228922, 37.5348877], [128.7238159, 37.5354384], [128.7243719, 37.5359432], [128.7272618, 37.5378365], [128.727731, 37.5389578], [128.7289812, 37.5400926], [128.7302963, 37.5419258], [128.7307923, 37.5422443], [128.7314872, 37.5425894], [128.7316862, 37.5430453], [128.7324133, 37.5438931], [128.7331112, 37.544074], [128.7335371, 37.5443146], [128.7340792, 37.5443771], [128.734941, 37.5447217], [128.7350198, 37.5449142], [128.7356025, 37.5451922], [128.7356762, 37.5454727], [128.7360595, 37.5457494], [128.7361995, 37.5462676], [128.7367047, 37.5467053], [128.7370774, 37.5473017], [128.7376484, 37.5475146], [128.7382894, 37.5475578], [128.7392258, 37.5476702], [128.7397311, 37.5474124], [128.7408982, 37.5465726], [128.7423661, 37.5458939], [128.7431456, 37.5458605], [128.7445133, 37.5461654], [128.7452096, 37.5468525], [128.74598, 37.5470193], [128.7466899, 37.5467552], [128.7478295, 37.5465593], [128.7486865, 37.5469033], [128.7497923, 37.5465936], [128.7513018, 37.545674], [128.7517893, 37.5455505], [128.7519616, 37.5452523], [128.7531411, 37.5450093], [128.7534807, 37.5450595], [128.7543084, 37.5446851], [128.7558986, 37.5441638], [128.7561548, 37.544292], [128.7565376, 37.5442145], [128.7566563, 37.5437871], [128.7573275, 37.5431155], [128.7582835, 37.5426925], [128.7589148, 37.5422606], [128.7599504, 37.5418597], [128.7607897, 37.5418709], [128.7620068, 37.5415034], [128.7624098, 37.541816], [128.76341, 37.5420835], [128.7638345, 37.5422914], [128.7646338, 37.5427659], [128.7654249, 37.5429703], [128.7658355, 37.5432308], [128.7664714, 37.543386], [128.7670308, 37.5436316], [128.7682441, 37.5432184], [128.7691308, 37.5431883], [128.7696367, 37.5432477], [128.7715354, 37.5429811], [128.7720136, 37.5429421], [128.7731905, 37.5430137], [128.7741444, 37.542773], [128.7773621, 37.5441717], [128.7799955, 37.5437722], [128.7809308, 37.5434944], [128.7831857, 37.5423914], [128.7843692, 37.5417286], [128.7850716, 37.5414438], [128.7854971, 37.5409157], [128.7861538, 37.5408787], [128.7870247, 37.5409863], [128.7878112, 37.5401045], [128.7882296, 37.5398882], [128.7890764, 37.5399511], [128.7893681, 37.5398777], [128.7894646, 37.5397723], [128.7898261, 37.5396925], [128.7908209, 37.5392155], [128.7916577, 37.5384283], [128.7921012, 37.538244], [128.7922057, 37.5379141], [128.7929622, 37.5371741], [128.7927427, 37.5364367], [128.7919919, 37.535302], [128.7920501, 37.5341286], [128.7920147, 37.5338878], [128.7920399, 37.5337295], [128.7920284, 37.5327629], [128.7923934, 37.5321941], [128.7926634, 37.5320706], [128.7933266, 37.5312587], [128.7936963, 37.5297808], [128.7942158, 37.5298159], [128.7953308, 37.5296], [128.7960655, 37.5296339], [128.7970045, 37.5289605], [128.7972371, 37.5286665], [128.7972139, 37.5283183], [128.7973238, 37.5279909], [128.7974942, 37.5277144], [128.7981261, 37.5274733], [128.7979713, 37.5274141], [128.7979824, 37.5273902], [128.7981496, 37.5274499], [128.797982, 37.5271681], [128.7977507, 37.5269689], [128.7974638, 37.5269311], [128.7971441, 37.5266727], [128.7975998, 37.5258663], [128.7976247, 37.5255776], [128.7974993, 37.5252563], [128.7974924, 37.5241872], [128.7974498, 37.5235153], [128.7972328, 37.5228421], [128.7973339, 37.5223692], [128.7975646, 37.5220265], [128.7975711, 37.5218704], [128.7979683, 37.5214078], [128.7982389, 37.5212091], [128.7982034, 37.5209546], [128.7980505, 37.5205312], [128.7978386, 37.5196705], [128.7977871, 37.5187005], [128.7976171, 37.5184498], [128.7976654, 37.5184161], [128.7992057, 37.5173403], [128.7995219, 37.5169242], [128.799548, 37.5167425], [128.8025935, 37.515153], [128.8033863, 37.5148617], [128.8037637, 37.5146411], [128.8055486, 37.5138374], [128.8065221, 37.513695], [128.8073496, 37.5134239], [128.808011, 37.513063], [128.8080241, 37.5121391], [128.8085763, 37.5115901], [128.8102308, 37.5108213], [128.8104938, 37.5103291], [128.8108628, 37.5100059], [128.8116855, 37.5099331], [128.8119489, 37.5096593], [128.812156, 37.509177], [128.8120569, 37.5090966], [128.8122286, 37.5090379], [128.8122588, 37.5089581], [128.812247, 37.5088211], [128.8121223, 37.5084686], [128.8120055, 37.5083448], [128.8121602, 37.5079923], [128.8125305, 37.5078154], [128.8128663, 37.5074814], [128.8136617, 37.5071399], [128.8139563, 37.5069157], [128.8139971, 37.5069807], [128.814064, 37.5068108], [128.8143503, 37.5065772], [128.814497, 37.5063174], [128.8142576, 37.505756], [128.8141508, 37.5056656], [128.814146, 37.5055525], [128.8142406, 37.5053461], [128.8142961, 37.5053464], [128.8142801, 37.5055184], [128.814309, 37.5055579], [128.8143435, 37.5052764], [128.8143125, 37.5052791], [128.8142062, 37.5051656], [128.8141697, 37.5047664], [128.8140659, 37.504333], [128.8137539, 37.5032959], [128.8143853, 37.5034836], [128.8146289, 37.5037667], [128.814838, 37.5038057], [128.8151563, 37.5037738], [128.8158227, 37.504089], [128.8166262, 37.5043191], [128.8169579, 37.5043142], [128.8170855, 37.5045381], [128.8172526, 37.5046064], [128.8175966, 37.5050952], [128.8180002, 37.5054181], [128.81872, 37.5056931], [128.819008, 37.5058545], [128.8190702, 37.5058969], [128.8192677, 37.5061863], [128.8207749, 37.5071316], [128.8228768, 37.5078579], [128.8246925, 37.5083355], [128.8261003, 37.5085361], [128.8264876, 37.5086349], [128.8282611, 37.509222], [128.8290616, 37.5096452], [128.8304903, 37.5100892], [128.8314029, 37.511005], [128.8315698, 37.5117045], [128.8319611, 37.5120824], [128.8324456, 37.5123838], [128.8329139, 37.5124283], [128.8330961, 37.5127709], [128.8339314, 37.5131474], [128.8358095, 37.5128532], [128.8365025, 37.5124906], [128.838179, 37.5121098], [128.8387303, 37.5119345], [128.8394182, 37.512028], [128.8397151, 37.5119871], [128.840418, 37.5120296], [128.8406399, 37.5121551], [128.8410128, 37.5125169], [128.8414604, 37.5127845], [128.8418753, 37.5131578], [128.8420295, 37.5132212], [128.8424481, 37.5128538], [128.8431129, 37.5125661], [128.8458149, 37.5138356], [128.8470455, 37.5146556], [128.8481688, 37.5149319], [128.8483705, 37.5152002], [128.8487884, 37.5154366], [128.8487245, 37.515551], [128.8489404, 37.5155806], [128.849069, 37.5155491], [128.8486671, 37.5162222], [128.8487059, 37.5162591], [128.848606, 37.5164645], [128.8484881, 37.5164446], [128.8484993, 37.5171119], [128.8485862, 37.5172685], [128.8486405, 37.5172468], [128.8488547, 37.5174937], [128.8495651, 37.5185372], [128.8497102, 37.5188601], [128.849973, 37.5192541], [128.8500375, 37.5194622], [128.8499897, 37.5195153], [128.8500343, 37.5196183], [128.8500897, 37.5196588], [128.8501178, 37.5197797], [128.8500493, 37.5199705], [128.8498637, 37.5201823], [128.8496559, 37.5203575], [128.8495809, 37.5203548], [128.8490246, 37.5207151], [128.8489241, 37.5208099], [128.8487733, 37.5208573], [128.8482808, 37.5212808], [128.8481542, 37.5214376], [128.8483834, 37.5218003], [128.8494346, 37.5222323], [128.849525, 37.5223719], [128.8499903, 37.522607], [128.8502885, 37.5227009], [128.8505381, 37.52282], [128.8505208, 37.5228771], [128.8506585, 37.5229417], [128.8507397, 37.5229095], [128.8509321, 37.5229867], [128.8509632, 37.5230557], [128.8510614, 37.5230832], [128.8510416, 37.5231423], [128.8511738, 37.5231428], [128.8513016, 37.5232199], [128.851428, 37.5230732], [128.8515116, 37.5230381], [128.8518897, 37.5230018], [128.8524361, 37.5231714], [128.8525687, 37.5231753], [128.8526469, 37.5232802], [128.8526599, 37.5234174], [128.8529871, 37.5234441], [128.8531084, 37.5234878], [128.853331, 37.5239865], [128.8537631, 37.524208], [128.8541206, 37.5241822], [128.8542547, 37.5242048], [128.8543882, 37.5246123], [128.854403, 37.5247236], [128.8543437, 37.5248284], [128.8545306, 37.5249105], [128.8544706, 37.5253447], [128.8545078, 37.5254311], [128.8547134, 37.5256007], [128.8547439, 37.5256903], [128.8547113, 37.5261419], [128.8547468, 37.5262362], [128.8545019, 37.5264224], [128.8539658, 37.5266983], [128.853775, 37.5271613], [128.8537188, 37.5271754], [128.8536605, 37.527247], [128.8536971, 37.5273418], [128.8536033, 37.5274481], [128.8536554, 37.5275697], [128.8535543, 37.5276549], [128.8536831, 37.5278601], [128.8537451, 37.5280505], [128.8536848, 37.5283299], [128.8536484, 37.5283434], [128.8536705, 37.5285936], [128.8537749, 37.528829], [128.8536741, 37.5289264], [128.8535915, 37.5293026], [128.8537153, 37.5294916], [128.8537043, 37.5298169], [128.8536699, 37.5298853], [128.8538565, 37.5301532], [128.8540496, 37.5303146], [128.854182, 37.5304789], [128.8542547, 37.5307348], [128.8545079, 37.5308521], [128.8546702, 37.5309971], [128.8546791, 37.5310966], [128.8548933, 37.5313812], [128.8549255, 37.5315966], [128.855227, 37.5319117], [128.8553036, 37.5322495], [128.8555004, 37.5322605], [128.8555583, 37.5324834], [128.8556395, 37.5326082], [128.8557725, 37.5327123], [128.8557666, 37.5328582], [128.8558938, 37.5330136], [128.8557754, 37.5331016], [128.8556522, 37.5333642], [128.8556469, 37.5337643], [128.8555474, 37.5339297], [128.8554378, 37.5339849], [128.8553839, 37.5339371], [128.8554152, 37.5336711], [128.8553594, 37.5336452], [128.8552825, 37.5336676], [128.8553502, 37.5338596], [128.8554199, 37.5343613], [128.8556107, 37.534657], [128.8553878, 37.5347081], [128.8553679, 37.5349193], [128.8552501, 37.5351016], [128.8552374, 37.5362445], [128.8555141, 37.5372936], [128.8559345, 37.5374672], [128.8561448, 37.5374078], [128.8567174, 37.5372462], [128.8568918, 37.5378657], [128.8570576, 37.5380503], [128.857507, 37.5380818], [128.857945, 37.5390208], [128.858559, 37.5391043], [128.8589793, 37.5397272], [128.8591392, 37.5405279], [128.8595005, 37.5407274], [128.8595762, 37.5409272], [128.8593668, 37.5412653], [128.8593372, 37.5417708], [128.8599292, 37.5424168], [128.8597439, 37.5429991], [128.8597979, 37.5435796], [128.860109, 37.5439765], [128.8596569, 37.544577], [128.8598682, 37.5450993], [128.8597104, 37.5453397], [128.8595213, 37.5455101], [128.8591621, 37.5457134], [128.8590865, 37.5466667], [128.859177, 37.5469384], [128.8592803, 37.5470417], [128.8591571, 37.5477754], [128.8600492, 37.5481307], [128.8604999, 37.5486689], [128.8608909, 37.5490194], [128.8607845, 37.5493074], [128.8609659, 37.5498335], [128.8615688, 37.5508291], [128.8614527, 37.5515077], [128.8615387, 37.5516521], [128.8617282, 37.5517784], [128.8618579, 37.5522456], [128.86176, 37.5528026], [128.8619781, 37.5530711], [128.8620266, 37.5536297], [128.8616141, 37.5542474], [128.8617722, 37.5544735], [128.8598889, 37.5553027], [128.8594661, 37.5556331], [128.8591835, 37.5559036], [128.8594215, 37.5570575], [128.8593135, 37.5581197], [128.8594218, 37.5594045], [128.859135, 37.559404], [128.8591332, 37.5602409], [128.8588985, 37.5606582], [128.8587926, 37.5612215], [128.8612745, 37.563001], [128.8611859, 37.5631925], [128.8613351, 37.563493], [128.861268, 37.5637795], [128.8621204, 37.5642112], [128.8625498, 37.5646529], [128.8626963, 37.5650692], [128.8627108, 37.5659788], [128.8625661, 37.5684481], [128.8619464, 37.5704634], [128.8623935, 37.5714034], [128.8625684, 37.5716819], [128.8631494, 37.57368], [128.8637932, 37.5752156], [128.8647038, 37.5759177], [128.8657483, 37.5763725], [128.8658846, 37.5764317], [128.866032, 37.5772807], [128.8666293, 37.5783382], [128.8672217, 37.5787007], [128.8675395, 37.5791202], [128.868557, 37.5790684], [128.8687531, 37.5794862], [128.869376, 37.5801086], [128.8699618, 37.581099], [128.8702002, 37.5819758], [128.8699409, 37.5823287], [128.8704576, 37.5831586], [128.8709306, 37.5845179], [128.8717004, 37.5846029], [128.8718429, 37.5848692], [128.8714286, 37.5858312], [128.8720034, 37.5863356], [128.8722706, 37.5872302], [128.8730198, 37.5879641], [128.8730915, 37.5880835], [128.8735389, 37.5896746], [128.8760606, 37.5893077], [128.8768351, 37.5889877], [128.8777093, 37.5884938], [128.8793429, 37.5901251], [128.8805914, 37.5905452], [128.8818636, 37.5911513], [128.8824928, 37.592436], [128.883932, 37.5927163], [128.8844796, 37.5929158], [128.8855527, 37.5928855], [128.88879, 37.5922296], [128.8893656, 37.5915166], [128.8898588, 37.5900736], [128.8902464, 37.5885457], [128.8907142, 37.5883513], [128.8911601, 37.5883034], [128.892632, 37.5884104], [128.8944545, 37.58775], [128.895312, 37.5867571], [128.8959374, 37.5864732], [128.897763, 37.5866905], [128.8975158, 37.5850211], [128.898686, 37.5840018], [128.8982118, 37.5818079], [128.8995473, 37.5806995], [128.8993393, 37.5792488], [128.8997455, 37.5779462], [128.9004301, 37.5748466], [128.90123, 37.5739889], [128.9010172, 37.5718922], [128.9013861, 37.5715026], [128.9034005, 37.5713851], [128.9040655, 37.5714411], [128.9047735, 37.5703672], [128.9052072, 37.5684406], [128.905729, 37.5671], [128.9044619, 37.5657829], [128.9041706, 37.5635636], [128.9048225, 37.5633307], [128.9048726, 37.5629904], [128.9054543, 37.5613921], [128.9049004, 37.5598465], [128.9052048, 37.5578158], [128.9044718, 37.5554659], [128.905034, 37.5547007], [128.9052915, 37.5534818], [128.9057399, 37.5526202], [128.9063516, 37.5525903], [128.9076477, 37.552597], [128.9083185, 37.5528646], [128.9086713, 37.552762], [128.9103154, 37.5529204], [128.9115139, 37.5529835], [128.91292, 37.5528529], [128.9137179, 37.5521522], [128.9144558, 37.5519297], [128.9148389, 37.5512022], [128.9145485, 37.5502723], [128.915057, 37.5492655], [128.9162152, 37.548014], [128.9171035, 37.5482963], [128.9175139, 37.5488324], [128.9190664, 37.5484955], [128.9197926, 37.547669], [128.9214813, 37.5474338], [128.9217752, 37.5474363], [128.9220327, 37.547261], [128.9229822, 37.5472804], [128.9239534, 37.547058], [128.9247638, 37.5472385], [128.9254937, 37.5466377], [128.9254854, 37.5461077], [128.925747, 37.5459542], [128.9263485, 37.54505], [128.9263465, 37.5446435], [128.9271006, 37.5442999], [128.9280583, 37.5430875], [128.9295035, 37.5426985], [128.929702, 37.5424965], [128.9308456, 37.5427811], [128.9314072, 37.5423068], [128.9314345, 37.541883], [128.9319706, 37.5410519], [128.9317864, 37.539669], [128.9319749, 37.5393841], [128.9327606, 37.5388524], [128.9337179, 37.5388911], [128.9343759, 37.5381416], [128.9352903, 37.5382857], [128.9372589, 37.5377706], [128.9379649, 37.5380738], [128.9389003, 37.5380018], [128.9392209, 37.5381086], [128.9404583, 37.5381398], [128.9409967, 37.53856], [128.9416506, 37.5385425], [128.9428196, 37.5392178], [128.9428426, 37.5395592], [128.9439365, 37.5406929], [128.9444396, 37.5407764], [128.944634, 37.5409629], [128.9456327, 37.5412204], [128.9459291, 37.5408447], [128.9492471, 37.5396747], [128.9501656, 37.5399337], [128.9506208, 37.5406221], [128.9508417, 37.5406458], [128.9512639, 37.5409189], [128.9517324, 37.5409095], [128.9530931, 37.5413797], [128.9534056, 37.5415406], [128.954218, 37.5413909], [128.9551257, 37.5414387], [128.9570735, 37.5430248], [128.9572441, 37.5432216], [128.9568623, 37.5438169], [128.9570342, 37.5439553], [128.957613, 37.5442402], [128.9578061, 37.5445805], [128.9583895, 37.5445711], [128.9591389, 37.545511], [128.9597297, 37.5460237], [128.959816, 37.5471867], [128.959543, 37.5484006], [128.9610857, 37.5486866], [128.9612344, 37.5487469], [128.9617654, 37.5477458], [128.9620715, 37.5459756], [128.9627818, 37.5431553], [128.9650409, 37.541936], [128.9664294, 37.5403136], [128.9683059, 37.539623], [128.9682902, 37.5385676], [128.9697739, 37.5369396], [128.9700045, 37.5367666], [128.9711945, 37.536838], [128.9721616, 37.5363491], [128.9722111, 37.5356659], [128.9721714, 37.5352556], [128.9733785, 37.5337358], [128.9739099, 37.5339118], [128.974901, 37.5339859], [128.9758208, 37.534254], [128.9764134, 37.5342461], [128.9776554, 37.5339035], [128.9787902, 37.5337168], [128.9796571, 37.5332375], [128.9797802, 37.5332008], [128.9806933, 37.5330824], [128.9813569, 37.533165], [128.982623, 37.5336252], [128.9828504, 37.5336034], [128.9837088, 37.5336852], [128.9843409, 37.5335527], [128.9844137, 37.5336596], [128.9856847, 37.5341058], [128.9867379, 37.5341216], [128.9876447, 37.5338713], [128.9879949, 37.5342812], [128.9883357, 37.5354655], [128.9884164, 37.5355241], [128.9886649, 37.53559], [128.9890939, 37.5360346], [128.9891132, 37.5360954], [128.9890497, 37.5365269], [128.9892902, 37.5366388], [128.9895933, 37.5368431], [128.9899003, 37.5372859], [128.9905145, 37.5378259], [128.991056, 37.5384189], [128.9912073, 37.5388294], [128.9919543, 37.5391374], [128.9925539, 37.5395896], [128.9926092, 37.5396736], [128.9945896, 37.5410923], [128.9955771, 37.5416361], [128.9970108, 37.541999], [128.997166, 37.5420777], [128.9975578, 37.5424652], [128.9976713, 37.5425322], [128.9985595, 37.5428137], [128.9999365, 37.5427571], [129.0006106, 37.5428333], [129.0017188, 37.5427329], [129.0026513, 37.5428201], [129.0034052, 37.5416615], [129.0039468, 37.5416991], [129.0044488, 37.5416852], [129.0046485, 37.5417122], [129.0049647, 37.5418062], [129.0070103, 37.5412532], [129.0077673, 37.5411787], [129.0083351, 37.5411646], [129.0095371, 37.540437], [129.0100924, 37.540278], [129.0105548, 37.5398555], [129.0116419, 37.5397489], [129.0124248, 37.5394788], [129.0129856, 37.5394836], [129.0133865, 37.5392972], [129.0145995, 37.5394049], [129.0149519, 37.5395863], [129.0159675, 37.5397647], [129.017384, 37.5385294], [129.0185573, 37.5382782], [129.0187603, 37.5383052], [129.0197564, 37.5386268], [129.0199174, 37.5387251], [129.0205173, 37.5392219], [129.0211633, 37.5394628], [129.0213146, 37.5395663], [129.0216491, 37.5399733], [129.0219613, 37.5402106], [129.022243, 37.5403651], [129.022205, 37.5407509], [129.0228129, 37.541375], [129.0231502, 37.541664], [129.023414, 37.5422014], [129.023836, 37.5424858], [129.0243794, 37.5430198], [129.0250201, 37.5439266], [129.0252831, 37.5444094], [129.0254006, 37.5449234], [129.0257659, 37.5454343], [129.0258605, 37.5455191], [129.0260792, 37.5455685], [129.0262539, 37.545686], [129.0265374, 37.5457884], [129.0268892, 37.5459853], [129.0270819, 37.5460234], [129.0277874, 37.5460304], [129.0284361, 37.5465618], [129.0285734, 37.5465676], [129.0290406, 37.5466885], [129.0295891, 37.5468615], [129.0305269, 37.5470514], [129.0311664, 37.5472797], [129.0318256, 37.5473515], [129.0326942, 37.5475966], [129.0330267, 37.5476123], [129.033427, 37.5473827], [129.0339831, 37.5472735], [129.035269, 37.5476905], [129.035727, 37.5477997], [129.0362463, 37.5480799], [129.036704, 37.5484661], [129.0369853, 37.5486285], [129.0376205, 37.5491693], [129.0380292, 37.5497121], [129.0380691, 37.5497249], [129.0386636, 37.5497549], [129.0391212, 37.5495491], [129.0392114, 37.5488623], [129.0395243, 37.5486033], [129.0396224, 37.5483094], [129.0400563, 37.547624], [129.0403216, 37.5473041], [129.0405791, 37.5471797], [129.0409147, 37.5471022], [129.0412819, 37.5471226], [129.0422837, 37.5474138], [129.0424889, 37.5474319], [129.0427878, 37.5473459], [129.0439935, 37.5466466], [129.0442251, 37.5463124], [129.044507, 37.546149], [129.0451725, 37.5461617], [129.0459126, 37.5462573], [129.046314, 37.5464429], [129.0470076, 37.5465958], [129.047073, 37.5466278], [129.0471045, 37.54666], [129.0470729, 37.547004], [129.0477889, 37.5476653], [129.0478385, 37.5478744], [129.0478401, 37.5480512], [129.0474721, 37.5484931], [129.0476308, 37.5493458], [129.0474418, 37.5497773], [129.0478394, 37.5502892], [129.0485796, 37.5515722], [129.0489133, 37.5519453], [129.0495678, 37.5523954], [129.0498092, 37.5526513], [129.0502393, 37.5537561], [129.0503038, 37.553925], [129.0498461, 37.5542317], [129.0496354, 37.5545444], [129.049454, 37.5552392], [129.0489245, 37.5559342], [129.0483712, 37.5571653], [129.0482145, 37.5579357], [129.0482218, 37.5582953], [129.0483013, 37.5587185], [129.048602, 37.5594193], [129.048804, 37.559668], [129.0488978, 37.5599445], [129.0488029, 37.5602479], [129.0486215, 37.5605743], [129.0487334, 37.5612505], [129.0489724, 37.5614817], [129.0488348, 37.5619976], [129.0490925, 37.5625463], [129.0491912, 37.5631174], [129.0488085, 37.5637223], [129.0487388, 37.5642654], [129.0487883, 37.5647403], [129.0491577, 37.5650954], [129.0499167, 37.5657336], [129.0503833, 37.5666269], [129.0505914, 37.5670988], [129.0506472, 37.5683221], [129.0504519, 37.5687447], [129.0504135, 37.5696402], [129.05139, 37.5708276], [129.0510914, 37.571625], [129.0513266, 37.5723064], [129.0513509, 37.5725886], [129.0517429, 37.5735721], [129.0518476, 37.5743957], [129.051595, 37.5745606], [129.0513776, 37.5750452], [129.0511692, 37.5753506], [129.0510272, 37.5764036], [129.051709, 37.5770162], [129.0521768, 37.5774863], [129.0522018, 37.577806], [129.0528914, 37.5783807], [129.0531244, 37.5786863], [129.0538716, 37.5788867], [129.0542551, 37.5796986], [129.0545241, 37.5798204], [129.054708, 37.5800384], [129.0547962, 37.58021], [129.0548214, 37.5804582], [129.0551147, 37.5809904], [129.0559871, 37.581252], [129.0566866, 37.5823501], [129.0563918, 37.5835052], [129.0570157, 37.5861253], [129.0573179, 37.5866918], [129.0579192, 37.5875523], [129.0585163, 37.5880757], [129.0595667, 37.5884794], [129.0596056, 37.5885302], [129.05953, 37.589047], [129.0596397, 37.5899467], [129.0595436, 37.5902575], [129.0588948, 37.5910193], [129.0586513, 37.5916454], [129.0582735, 37.5920439], [129.0580544, 37.5924255], [129.0575366, 37.5929167], [129.0570486, 37.5935553], [129.0561642, 37.5937897], [129.0557222, 37.5937723], [129.0555827, 37.5943476], [129.0550144, 37.5947032], [129.0551927, 37.595155], [129.0551828, 37.5956828], [129.0554835, 37.5959782], [129.0556776, 37.5971104], [129.0563036, 37.5971344], [129.0565034, 37.5971174], [129.0571366, 37.5969482], [129.0572438, 37.5969469], [129.0588184, 37.5973372], [129.0597267, 37.597472], [129.0603283, 37.5978083], [129.0610232, 37.597886], [129.0613075, 37.5980862], [129.0625946, 37.5978399], [129.0633061, 37.5978298], [129.0636164, 37.5979958], [129.0637313, 37.5981458], [129.0641053, 37.5983653], [129.0651771, 37.5986745], [129.0658946, 37.5986119], [129.0664286, 37.598754], [129.0675843, 37.5988765], [129.0683462, 37.5988031], [129.0687364, 37.5989047], [129.0700205, 37.599984], [129.0702864, 37.600374], [129.0705355, 37.6009349], [129.0714444, 37.6018505], [129.0717195, 37.6023189], [129.0731389, 37.6038448], [129.0736792, 37.6039942], [129.0738305, 37.6040565], [129.0740459, 37.6042165], [129.0744486, 37.6045388], [129.0985684, 37.6262222], [129.1741322, 37.6941121], [129.2757493, 37.7825338], [129.2397305, 37.817921], [129.2172042, 37.827834], [129.1992184, 37.8547967], [129.1861721, 37.8660002], [129.1720959, 37.8794481], [129.1569897, 37.8888593], [129.1405102, 37.8992285], [129.114761, 37.9330963], [129.0714551, 37.9726013], [129.0541115, 38], [129.0440365, 38.0159109], [128.9974314, 38.0562167], [128.9361048, 38.0111311], [128.8678738, 37.9609371], [128.8277062, 37.9309855], [128.8091879, 37.9171729], [128.8087264, 37.9170001], [128.8085662, 37.9169074], [128.8081754, 37.9166423], [128.8079324, 37.91659], [128.8077699, 37.916483], [128.8075596, 37.9164708], [128.8072027, 37.9162167], [128.8069173, 37.9158498], [128.8064838, 37.9156478], [128.806002, 37.9156929], [128.8057463, 37.9155235], [128.8055101, 37.9150049], [128.8052121, 37.9146322], [128.8043649, 37.9138266], [128.8043481, 37.9136638], [128.8042384, 37.9135703], [128.8038742, 37.9132598], [128.8034285, 37.9130091], [128.8028335, 37.9129993], [128.8026235, 37.9129429], [128.8022248, 37.9130278], [128.8020185, 37.9129631], [128.8015969, 37.9130706], [128.8007921, 37.913142], [128.8003175, 37.9130474], [128.7995141, 37.9129876], [128.798885, 37.9128638], [128.7983993, 37.9126891], [128.7972302, 37.9130216], [128.7965046, 37.9128297], [128.7964349, 37.9123886], [128.7960301, 37.91214], [128.7952788, 37.9123063], [128.7948411, 37.9124407], [128.794253, 37.9123962], [128.7934842, 37.912212], [128.793149, 37.9122055], [128.7929033, 37.9123866], [128.792153, 37.9127024], [128.7916374, 37.9126303], [128.7912678, 37.9126694], [128.790448, 37.912962], [128.7901694, 37.9131357], [128.7896253, 37.9132731], [128.7891872, 37.9132333], [128.7887365, 37.9130958], [128.7882984, 37.9130242], [128.7876192, 37.913164], [128.7872965, 37.9131745], [128.7866698, 37.9132842], [128.7863097, 37.913395], [128.7858101, 37.9137761], [128.7855632, 37.9140008], [128.7854071, 37.914202], [128.7852392, 37.9142203], [128.784985, 37.9144811], [128.7844636, 37.9145499], [128.784014, 37.9145474], [128.7836993, 37.9146957], [128.7830119, 37.9146906], [128.7828446, 37.9145313], [128.7827962, 37.9142615], [128.782474, 37.9141197], [128.7818801, 37.9141259], [128.7810699, 37.9135501], [128.7807777, 37.9134562], [128.7803305, 37.913418], [128.7797749, 37.9132757], [128.7788377, 37.9134445], [128.7783177, 37.9134106], [128.777939, 37.9131461], [128.7779625, 37.9129887], [128.7779126, 37.9127887], [128.7776756, 37.9123903], [128.7767937, 37.9112528], [128.7768551, 37.9110714], [128.7768194, 37.9107997], [128.7765969, 37.9106167], [128.7759208, 37.9103257], [128.7755349, 37.9101156], [128.7752609, 37.9101586], [128.7738488, 37.9102612], [128.7731429, 37.9110632], [128.7714395, 37.9108118], [128.7703524, 37.9097497], [128.7700792, 37.910017], [128.7690024, 37.9106328], [128.7688046, 37.9106527], [128.7679647, 37.9105679], [128.7677147, 37.9104976], [128.7670907, 37.9105987], [128.7667129, 37.9104482], [128.7663299, 37.9101963], [128.7658105, 37.9102421], [128.7654823, 37.9101291], [128.7652038, 37.9101144], [128.7651136, 37.9099984], [128.764851, 37.9099536], [128.76463, 37.910027], [128.7645782, 37.9102268], [128.7639219, 37.9103279], [128.7637041, 37.9102236], [128.7634288, 37.9102286], [128.762989, 37.9099916], [128.7625885, 37.9098405], [128.7624246, 37.9098222], [128.7613543, 37.9100853], [128.7601719, 37.9101041], [128.7599877, 37.9100658], [128.7595869, 37.9102443], [128.7593808, 37.9104563], [128.7592196, 37.9105187], [128.7589448, 37.9105278], [128.758652, 37.9106626], [128.7582387, 37.9107478], [128.7579333, 37.9109776], [128.7572968, 37.9114823], [128.7573532, 37.9117903], [128.7569496, 37.9123162], [128.7561954, 37.9125023], [128.7561071, 37.9124349], [128.7555573, 37.9125521], [128.7544968, 37.9123466], [128.7536993, 37.9122518], [128.7532614, 37.9119926], [128.7526392, 37.9116877], [128.7523828, 37.9112627], [128.7521906, 37.9107535], [128.7512889, 37.9104851], [128.7503922, 37.9101319], [128.7497328, 37.9100137], [128.7493446, 37.9097821], [128.7486088, 37.9095433], [128.7473767, 37.9097719], [128.7473445, 37.9097509], [128.7469438, 37.9095134], [128.746602, 37.9091962], [128.746448, 37.908542], [128.7462815, 37.9082911], [128.7463217, 37.9080402], [128.7464255, 37.9077724], [128.746459, 37.9073825], [128.7462141, 37.9071835], [128.7460093, 37.9068484], [128.7461097, 37.9064647], [128.746045, 37.9061489], [128.7457363, 37.9058348], [128.7456088, 37.9055966], [128.7452471, 37.9053995], [128.7450728, 37.9051806], [128.7446602, 37.9042087], [128.7438001, 37.9038969], [128.7433461, 37.9038842], [128.7422099, 37.9040516], [128.7418785, 37.9038121], [128.7409522, 37.9034931], [128.7409402, 37.903451], [128.7397252, 37.9035264], [128.738942, 37.9037317], [128.7388807, 37.9037832], [128.7363804, 37.9034145], [128.7356353, 37.9028067], [128.7354272, 37.9025375], [128.7354473, 37.901791], [128.7350387, 37.9011357], [128.7346335, 37.9010522], [128.7324104, 37.8998769], [128.7315706, 37.9002459], [128.7290992, 37.9010139], [128.7277809, 37.9018246], [128.7270479, 37.9026734], [128.7251673, 37.9025748], [128.7245201, 37.9023067], [128.7237163, 37.9021921], [128.7233106, 37.9018909], [128.7192005, 37.9027938], [128.7186079, 37.9034832], [128.7185651, 37.9033858], [128.7175932, 37.902609], [128.7175261, 37.9021373], [128.7156726, 37.9015385], [128.7151138, 37.9011272], [128.7140491, 37.9001185], [128.7132591, 37.8996804], [128.7133691, 37.8987546], [128.7114647, 37.8981306], [128.7105992, 37.8980503], [128.7088117, 37.897286], [128.7078142, 37.8978452], [128.7075041, 37.8979691], [128.7044821, 37.8978704], [128.7040225, 37.8981673], [128.702165, 37.8984053], [128.7002901, 37.8976557], [128.6994211, 37.8972015], [128.6981134, 37.8967705], [128.6965804, 37.8960246], [128.6961309, 37.8960474], [128.6958971, 37.8959238], [128.6955077, 37.8956566], [128.6944131, 37.8953419], [128.6934932, 37.8941894], [128.6912424, 37.8929141], [128.6898025, 37.8928151], [128.6891306, 37.8925111], [128.6882857, 37.8925683], [128.6877296, 37.8924048], [128.6871286, 37.8923889], [128.6866386, 37.8924646], [128.6857862, 37.892034], [128.6856059, 37.8917587], [128.6841628, 37.8905525], [128.6829579, 37.8900507], [128.6828285, 37.8899058], [128.681658, 37.8903285], [128.6813494, 37.8901755], [128.6807659, 37.8901503], [128.6801251, 37.8899793], [128.6797309, 37.890106], [128.6786716, 37.8902621], [128.6770448, 37.8897169], [128.6763398, 37.8898193], [128.6752784, 37.8889538], [128.6740246, 37.8883464], [128.6720757, 37.8875859], [128.6713326, 37.8864672], [128.6698205, 37.8862328], [128.6695854, 37.8859011], [128.6691835, 37.8858167], [128.6678833, 37.8858084], [128.6670756, 37.8857292], [128.6668159, 37.8858776], [128.6666972, 37.8858821], [128.6667147, 37.8867086], [128.6661863, 37.8873951], [128.6660776, 37.8881004], [128.6652443, 37.8891777], [128.6648315, 37.8905036], [128.6641853, 37.8907838], [128.6597647, 37.8917729], [128.6577432, 37.8917485], [128.6565048, 37.8916164], [128.656297, 37.8914425], [128.6538869, 37.8907811], [128.6527434, 37.8908103], [128.6521643, 37.890888], [128.6513274, 37.8906959], [128.650864, 37.890641], [128.6502343, 37.8906777], [128.6493837, 37.8908104], [128.6477725, 37.890929], [128.6474851, 37.8914394], [128.6467949, 37.89198], [128.6460377, 37.8923231], [128.6451345, 37.8929702], [128.6453761, 37.8936565], [128.6434134, 37.8943275], [128.642938, 37.8948859], [128.641995, 37.8943808], [128.641108, 37.8934866], [128.6403358, 37.8929138], [128.6394245, 37.8923778], [128.6390306, 37.8919954], [128.6385005, 37.8920264], [128.6374256, 37.8919952], [128.6373112, 37.8917521], [128.6386041, 37.8918119], [128.6388257, 37.8917891], [128.6385225, 37.891443], [128.6379725, 37.8908151], [128.6371534, 37.8901919], [128.6368388, 37.8897473], [128.6357019, 37.8891449], [128.6350819, 37.8883492], [128.6350362, 37.8879701], [128.6347957, 37.8876167], [128.6333023, 37.8872239], [128.6320991, 37.8864954], [128.6312106, 37.886327], [128.6306188, 37.8856674], [128.6297581, 37.8856306], [128.6284812, 37.8849878], [128.6280774, 37.8844568], [128.6276798, 37.8841448], [128.6267653, 37.8825193], [128.6255919, 37.8823947], [128.6243557, 37.8816455], [128.623956, 37.8808155], [128.623561, 37.8805197], [128.6250118, 37.8791262], [128.6246453, 37.8787866], [128.6235457, 37.8784443], [128.6231985, 37.8780642], [128.6234954, 37.8775776], [128.6236994, 37.875754], [128.6235114, 37.8749554], [128.6226444, 37.8746289], [128.6219782, 37.8742237], [128.6215065, 37.8742226], [128.6212736, 37.8732222], [128.6207659, 37.8723514], [128.6190794, 37.8717674], [128.6183525, 37.8719187], [128.61763, 37.8718968], [128.6171282, 37.8720582], [128.6155247, 37.8720059], [128.6142105, 37.8714108], [128.6133094, 37.8715858], [128.6118037, 37.8711003], [128.6102908, 37.8714402], [128.6096334, 37.8710609], [128.6077338, 37.8706044], [128.6069804, 37.8703509], [128.6057371, 37.8703822], [128.6051776, 37.8709148], [128.6041003, 37.8707938], [128.603429, 37.8708542], [128.6020511, 37.870659], [128.601175, 37.870708], [128.6003493, 37.8698527], [128.5997957, 37.86913], [128.5996394, 37.8683903], [128.5989683, 37.8678018], [128.59847, 37.8668916], [128.5976984, 37.8659584], [128.5956517, 37.866145], [128.5948646, 37.866121], [128.5941289, 37.8657757], [128.5919713, 37.8655974], [128.5915995, 37.8654152], [128.5908265, 37.8642956], [128.5897873, 37.8631959], [128.5881823, 37.8620186], [128.5880171, 37.8620332], [128.588013, 37.8619902], [128.5884327, 37.8614119], [128.5887872, 37.8610046], [128.5887785, 37.8599186], [128.5886096, 37.8585516], [128.5882663, 37.8575441], [128.5882616, 37.8567289], [128.5873911, 37.8557033], [128.5875586, 37.854904], [128.5871441, 37.8540352], [128.5873895, 37.8530762], [128.5873742, 37.852198], [128.5872474, 37.8519959], [128.5862855, 37.8513273], [128.585932, 37.8509512], [128.5858218, 37.8507807], [128.5855349, 37.8498361], [128.5850747, 37.8492348], [128.5849256, 37.8481543], [128.5856806, 37.8470212], [128.5861071, 37.8462294], [128.5857969, 37.8457525], [128.5860468, 37.8452506], [128.5860569, 37.8451432], [128.585279, 37.8444459], [128.5851922, 37.844337], [128.5846015, 37.8432597], [128.5845515, 37.8432105], [128.5833888, 37.8426254], [128.5830327, 37.8421274], [128.583027, 37.8420723], [128.5835272, 37.8408269], [128.5835241, 37.8407501], [128.5832416, 37.8403192], [128.5825591, 37.8387155], [128.581864, 37.83838], [128.5816058, 37.8377256], [128.5820002, 37.8361764], [128.5815679, 37.8353675], [128.581873, 37.8344938], [128.5818099, 37.8340476], [128.5819403, 37.8330208], [128.5819753, 37.8329156], [128.5823001, 37.8324172], [128.5818238, 37.8319385], [128.5812501, 37.8309815], [128.5806594, 37.8287626], [128.580361, 37.8280011]]]}, "properties": {"name": "강릉시"}}]}