{
  "type": "FeatureCollection",
  "features": [
    {
      "type": "Feature",
      "geometry": {
        "type": "Point",
        "coordinates": [
          128.880885,
          37.770103
        ]
      },
      "properties": {
        "학교명": "경포유치원",
        "학교급구분": "유치원",
        "시도교육청명": "강원특별자치도교육청",
        "교육지원청명": "강원특별자치도강릉교육지원청"
      }
    },
    {
      "type": "Feature",
      "geometry": {
        "type": "Point",
        "coordinates": [
          128.88803,
          37.751568
        ]
      },
      "properties": {
        "학교명": "늘해랑유치원",
        "학교급구분": "유치원",
        "시도교육청명": "강원특별자치도교육청",
        "교육지원청명": "강원특별자치도강릉교육지원청"
      }
    },
    {
      "type": "Feature",
      "geometry": {
        "type": "Point",
        "coordinates": [
          128.914273,
          37.775546
        ]
      },
      "properties": {
        "학교명": "솔향유치원",
        "학교급구분": "유치원",
        "시도교육청명": "강원특별자치도교육청",
        "교육지원청명": "강원특별자치도강릉교육지원청"
      }
    },
    {
      "type": "Feature",
      "geometry": {
        "type": "Point",
        "coordinates": [
          128.909901,
          37.748232
        ]
      },
      "properties": {
        "학교명": "하슬라유치원",
        "학교급구분": "유치원",
        "시도교육청명": "강원특별자치도교육청",
        "교육지원청명": "강원특별자치도강릉교육지원청"
      }
    },
    {
      "type": "Feature",
      "geometry": {
        "type": "Point",
        "coordinates": [
          128.9623406,
          37.72474403
        ]
      },
      "properties": {
        "학교ID": "B000004937",
        "학교명": "강동초등학교",
        "학교급구분": "초등학교",
        "설립일자": "1932-02-10",
        "설립형태": "공립",
        "본교분교구분": "본교",
        "소재지지번주소": "강원특별자치도 강릉시 강동면 모전리 384",
        "소재지도로명주소": "강원특별자치도 강릉시 강동면 단경로 20",
        "시도교육청코드": 7801000,
        "시도교육청명": "강원특별자치도교육청",
        "교육지원청명": "강원특별자치도강릉교육지원청",
        "생성일자": "2013-11-29",
        "변경일자": "2025-10-25",
        "데이터기준일자": "2026-03-20",
        "제공기관코드": "B554398",
        "제공기관명": "한국교육시설안전원"
      }
    },
    {
      "type": "Feature",
      "geometry": {
        "type": "Point",
        "coordinates": [
          128.887751,
          37.75367806
        ]
      },
      "properties": {
        "학교ID": "B000004928",
        "학교명": "강릉초등학교",
        "학교급구분": "초등학교",
        "설립일자": "1896-09-17",
        "설립형태": "공립",
        "본교분교구분": "본교",
        "소재지지번주소": "강원특별자치도 강릉시 홍제동 38",
        "소재지도로명주소": "강원특별자치도 강릉시 토성로 103",
        "시도교육청코드": 7801000,
        "시도교육청명": "강원특별자치도교육청",
        "교육지원청명": "강원특별자치도강릉교육지원청",
        "생성일자": "2013-11-29",
        "변경일자": "2025-10-25",
        "데이터기준일자": "2026-03-20",
        "제공기관코드": "B554398",
        "제공기관명": "한국교육시설안전원"
      }
    },
    {
      "type": "Feature",
      "geometry": {
        "type": "Point",
        "coordinates": [
          128.9001388,
          37.80485771
        ]
      },
      "properties": {
        "학교ID": "B000004917",
        "학교명": "경포대초등학교",
        "학교급구분": "초등학교",
        "설립일자": "1968-03-25",
        "설립형태": "공립",
        "본교분교구분": "본교",
        "소재지지번주소": "강원특별자치도 강릉시 안현동 106-6",
        "소재지도로명주소": "강원특별자치도 강릉시 경포로475번길 23-11",
        "시도교육청코드": 7801000,
        "시도교육청명": "강원특별자치도교육청",
        "교육지원청명": "강원특별자치도강릉교육지원청",
        "생성일자": "2013-11-29",
        "변경일자": "2025-10-25",
        "데이터기준일자": "2026-03-20",
        "제공기관코드": "B554398",
        "제공기관명": "한국교육시설안전원"
      }
    },
    {
      "type": "Feature",
      "geometry": {
        "type": "Point",
        "coordinates": [
          128.8798575,
          37.77000657
        ]
      },
      "properties": {
        "학교ID": "B000004919",
        "학교명": "경포초등학교",
        "학교급구분": "초등학교",
        "설립일자": "1932-05-05",
        "설립형태": "공립",
        "본교분교구분": "본교",
        "소재지지번주소": "강원특별자치도 강릉시 교동 1797",
        "소재지도로명주소": "강원특별자치도 강릉시 솔올로 90",
        "시도교육청코드": 7801000,
        "시도교육청명": "강원특별자치도교육청",
        "교육지원청명": "강원특별자치도강릉교육지원청",
        "생성일자": "2013-11-29",
        "변경일자": "2025-10-25",
        "데이터기준일자": "2026-03-20",
        "제공기관코드": "B554398",
        "제공기관명": "한국교육시설안전원"
      }
    },
    {
      "type": "Feature",
      "geometry": {
        "type": "Point",
        "coordinates": [
          128.8935846,
          37.76730824
        ]
      },
      "properties": {
        "학교ID": "B000004918",
        "학교명": "교동초등학교",
        "학교급구분": "초등학교",
        "설립일자": "1971-10-11",
        "설립형태": "공립",
        "본교분교구분": "본교",
        "소재지지번주소": "강원특별자치도 강릉시 교동 310-1",
        "소재지도로명주소": "강원특별자치도 강릉시 율곡로2968번길 10",
        "시도교육청코드": 7801000,
        "시도교육청명": "강원특별자치도교육청",
        "교육지원청명": "강원특별자치도강릉교육지원청",
        "생성일자": "2013-11-29",
        "변경일자": "2025-10-25",
        "데이터기준일자": "2026-03-20",
        "제공기관코드": "B554398",
        "제공기관명": "한국교육시설안전원"
      }
    },
    {
      "type": "Feature",
      "geometry": {
        "type": "Point",
        "coordinates": [
          128.8913615,
          37.71771534
        ]
      },
      "properties": {
        "학교ID": "B000004935",
        "학교명": "구정초등학교",
        "학교급구분": "초등학교",
        "설립일자": "1936-10-01",
        "설립형태": "공립",
        "본교분교구분": "본교",
        "소재지지번주소": "강원특별자치도 강릉시 구정면 학산리 317",
        "소재지도로명주소": "강원특별자치도 강릉시 구정면 범일로 266-14",
        "시도교육청코드": 7801000,
        "시도교육청명": "강원특별자치도교육청",
        "교육지원청명": "강원특별자치도강릉교육지원청",
        "생성일자": "2013-11-29",
        "변경일자": "2025-10-25",
        "데이터기준일자": "2026-03-20",
        "제공기관코드": "B554398",
        "제공기관명": "한국교육시설안전원"
      }
    },
    {
      "type": "Feature",
      "geometry": {
        "type": "Point",
        "coordinates": [
          128.9135547,
          37.70388258
        ]
      },
      "properties": {
        "학교ID": "B000004936",
        "학교명": "금광초등학교",
        "학교급구분": "초등학교",
        "설립일자": "1944-06-24",
        "설립형태": "공립",
        "본교분교구분": "본교",
        "소재지지번주소": "강원특별자치도 강릉시 구정면 금광리 858-3",
        "소재지도로명주소": "강원특별자치도 강릉시 구정면 금평로 575",
        "시도교육청코드": 7801000,
        "시도교육청명": "강원특별자치도교육청",
        "교육지원청명": "강원특별자치도강릉교육지원청",
        "생성일자": "2013-11-29",
        "변경일자": "2025-10-25",
        "데이터기준일자": "2026-03-20",
        "제공기관코드": "B554398",
        "제공기관명": "한국교육시설안전원"
      }
    },
    {
      "type": "Feature",
      "geometry": {
        "type": "Point",
        "coordinates": [
          128.9146306,
          37.7670985
        ]
      },
      "properties": {
        "학교ID": "B000004927",
        "학교명": "남강초등학교",
        "학교급구분": "초등학교",
        "설립일자": "1987-03-01",
        "설립형태": "공립",
        "본교분교구분": "본교",
        "소재지지번주소": "강원특별자치도 강릉시 포남동 1278-117",
        "소재지도로명주소": "강원특별자치도 강릉시 경강로2310번길 7",
        "시도교육청코드": 7801000,
        "시도교육청명": "강원특별자치도교육청",
        "교육지원청명": "강원특별자치도강릉교육지원청",
        "생성일자": "2013-11-29",
        "변경일자": "2025-10-25",
        "데이터기준일자": "2026-03-20",
        "제공기관코드": "B554398",
        "제공기관명": "한국교육시설안전원"
      }
    },
    {
      "type": "Feature",
      "geometry": {
        "type": "Point",
        "coordinates": [
          128.892106,
          37.74449004
        ]
      },
      "properties": {
        "학교ID": "B000004922",
        "학교명": "남산초등학교",
        "학교급구분": "초등학교",
        "설립일자": "1983-04-20",
        "설립형태": "공립",
        "본교분교구분": "본교",
        "소재지지번주소": "강원특별자치도 강릉시 내곡동 125",
        "소재지도로명주소": "강원특별자치도 강릉시 남산초교길 33",
        "시도교육청코드": 7801000,
        "시도교육청명": "강원특별자치도교육청",
        "교육지원청명": "강원특별자치도강릉교육지원청",
        "생성일자": "2013-11-29",
        "변경일자": "2025-10-25",
        "데이터기준일자": "2026-03-20",
        "제공기관코드": "B554398",
        "제공기관명": "한국교육시설안전원"
      }
    },
    {
      "type": "Feature",
      "geometry": {
        "type": "Point",
        "coordinates": [
          128.901541,
          37.74082297
        ]
      },
      "properties": {
        "학교ID": "B000004923",
        "학교명": "노암초등학교",
        "학교급구분": "초등학교",
        "설립일자": "1979-03-15",
        "설립형태": "공립",
        "본교분교구분": "본교",
        "소재지지번주소": "강원특별자치도 강릉시 노암동 415-2",
        "소재지도로명주소": "강원특별자치도 강릉시 노암등길 71",
        "시도교육청코드": 7801000,
        "시도교육청명": "강원특별자치도교육청",
        "교육지원청명": "강원특별자치도강릉교육지원청",
        "생성일자": "2013-11-29",
        "변경일자": "2025-10-25",
        "데이터기준일자": "2026-03-20",
        "제공기관코드": "B554398",
        "제공기관명": "한국교육시설안전원"
      }
    },
    {
      "type": "Feature",
      "geometry": {
        "type": "Point",
        "coordinates": [
          128.9287446,
          37.77543116
        ]
      },
      "properties": {
        "학교ID": "B000004913",
        "학교명": "동명초등학교",
        "학교급구분": "초등학교",
        "설립일자": "1938-07-04",
        "설립형태": "공립",
        "본교분교구분": "본교",
        "소재지지번주소": "강원특별자치도 강릉시 송정동 168-1",
        "소재지도로명주소": "강원특별자치도 강릉시 경강로 2473",
        "시도교육청코드": 7801000,
        "시도교육청명": "강원특별자치도교육청",
        "교육지원청명": "강원특별자치도강릉교육지원청",
        "생성일자": "2013-11-29",
        "변경일자": "2025-10-25",
        "데이터기준일자": "2026-03-20",
        "제공기관코드": "B554398",
        "제공기관명": "한국교육시설안전원"
      }
    },
    {
      "type": "Feature",
      "geometry": {
        "type": "Point",
        "coordinates": [
          128.8784692,
          37.74277817
        ]
      },
      "properties": {
        "학교ID": "B000004914",
        "학교명": "명주초등학교",
        "학교급구분": "초등학교",
        "설립일자": "1946-03-06",
        "설립형태": "공립",
        "본교분교구분": "본교",
        "소재지지번주소": "강원특별자치도 강릉시 회산동 24",
        "소재지도로명주소": "강원특별자치도 강릉시 강변로 86-1",
        "시도교육청코드": 7801000,
        "시도교육청명": "강원특별자치도교육청",
        "교육지원청명": "강원특별자치도강릉교육지원청",
        "생성일자": "2013-11-29",
        "변경일자": "2025-10-25",
        "데이터기준일자": "2026-03-20",
        "제공기관코드": "B554398",
        "제공기관명": "한국교육시설안전원"
      }
    },
    {
      "type": "Feature",
      "geometry": {
        "type": "Point",
        "coordinates": [
          128.9017805,
          37.73184003
        ]
      },
      "properties": {
        "학교ID": "B000004915",
        "학교명": "모산초등학교",
        "학교급구분": "초등학교",
        "설립일자": "1941-09-28",
        "설립형태": "공립",
        "본교분교구분": "본교",
        "소재지지번주소": "강원특별자치도 강릉시 장현동 43-2",
        "소재지도로명주소": "강원특별자치도 강릉시 모산로224번길 3",
        "시도교육청코드": 7801000,
        "시도교육청명": "강원특별자치도교육청",
        "교육지원청명": "강원특별자치도강릉교육지원청",
        "생성일자": "2013-11-29",
        "변경일자": "2025-10-25",
        "데이터기준일자": "2026-03-20",
        "제공기관코드": "B554398",
        "제공기관명": "한국교육시설안전원"
      }
    },
    {
      "type": "Feature",
      "geometry": {
        "type": "Point",
        "coordinates": [
          128.8505139,
          37.82188867
        ]
      },
      "properties": {
        "학교ID": "B000004943",
        "학교명": "사천초등학교",
        "학교급구분": "초등학교",
        "설립일자": "1924-05-18",
        "설립형태": "공립",
        "본교분교구분": "본교",
        "소재지지번주소": "강원특별자치도 강릉시 사천면 미노리 406",
        "소재지도로명주소": "강원특별자치도 강릉시 사천면 미노길 46",
        "시도교육청코드": 7801000,
        "시도교육청명": "강원특별자치도교육청",
        "교육지원청명": "강원특별자치도강릉교육지원청",
        "생성일자": "2013-11-29",
        "변경일자": "2025-10-25",
        "데이터기준일자": "2026-03-20",
        "제공기관코드": "B554398",
        "제공기관명": "한국교육시설안전원"
      }
    },
    {
      "type": "Feature",
      "geometry": {
        "type": "Point",
        "coordinates": [
          128.910547,
          37.75644211
        ]
      },
      "properties": {
        "학교ID": "B000004925",
        "학교명": "성덕초등학교",
        "학교급구분": "초등학교",
        "설립일자": "1935-12-02",
        "설립형태": "공립",
        "본교분교구분": "본교",
        "소재지지번주소": "강원특별자치도 강릉시 입암동 625-1",
        "소재지도로명주소": "강원특별자치도 강릉시 용지로 60",
        "시도교육청코드": 7801000,
        "시도교육청명": "강원특별자치도교육청",
        "교육지원청명": "강원특별자치도강릉교육지원청",
        "생성일자": "2013-11-29",
        "변경일자": "2025-10-25",
        "데이터기준일자": "2026-03-20",
        "제공기관코드": "B554398",
        "제공기관명": "한국교육시설안전원"
      }
    },
    {
      "type": "Feature",
      "geometry": {
        "type": "Point",
        "coordinates": [
          128.8337431,
          37.71907111
        ]
      },
      "properties": {
        "학교ID": "B000004941",
        "학교명": "성산초등학교",
        "학교급구분": "초등학교",
        "설립일자": "1922-04-01",
        "설립형태": "공립",
        "본교분교구분": "본교",
        "소재지지번주소": "강원특별자치도 강릉시 성산면 구산리 154",
        "소재지도로명주소": "강원특별자치도 강릉시 성산면 구산길 15",
        "시도교육청코드": 7801000,
        "시도교육청명": "강원특별자치도교육청",
        "교육지원청명": "강원특별자치도강릉교육지원청",
        "생성일자": "2013-11-29",
        "변경일자": "2025-10-25",
        "데이터기준일자": "2026-03-20",
        "제공기관코드": "B554398",
        "제공기관명": "한국교육시설안전원"
      }
    },
    {
      "type": "Feature",
      "geometry": {
        "type": "Point",
        "coordinates": [
          128.8477386,
          37.75885165
        ]
      },
      "properties": {
        "학교ID": "B000004942",
        "학교명": "송양초등학교",
        "학교급구분": "초등학교",
        "설립일자": "1943-07-05",
        "설립형태": "공립",
        "본교분교구분": "본교",
        "소재지지번주소": "강원특별자치도 강릉시 성산면 위촌리 589",
        "소재지도로명주소": "강원특별자치도 강릉시 성산면 위촌길 198",
        "시도교육청코드": 7801000,
        "시도교육청명": "강원특별자치도교육청",
        "교육지원청명": "강원특별자치도강릉교육지원청",
        "생성일자": "2013-11-29",
        "변경일자": "2025-10-25",
        "데이터기준일자": "2026-03-20",
        "제공기관코드": "B554398",
        "제공기관명": "한국교육시설안전원"
      }
    },
    {
      "type": "Feature",
      "geometry": {
        "type": "Point",
        "coordinates": [
          128.9689053,
          37.67721845
        ]
      },
      "properties": {
        "학교ID": "B000004947",
        "학교명": "숲실초등학교",
        "학교급구분": "초등학교",
        "설립일자": "1944-06-13",
        "설립형태": "공립",
        "본교분교구분": "본교",
        "소재지지번주소": "강원특별자치도 강릉시 강동면 임곡리 350",
        "소재지도로명주소": "강원특별자치도 강릉시 강동면 임곡로 890-14",
        "시도교육청코드": 7801000,
        "시도교육청명": "강원특별자치도교육청",
        "교육지원청명": "강원특별자치도강릉교육지원청",
        "생성일자": "2013-11-29",
        "변경일자": "2025-10-25",
        "데이터기준일자": "2026-03-20",
        "제공기관코드": "B554398",
        "제공기관명": "한국교육시설안전원"
      }
    },
    {
      "type": "Feature",
      "geometry": {
        "type": "Point",
        "coordinates": [
          128.8232652,
          37.90706843
        ]
      },
      "properties": {
        "학교ID": "B000004933",
        "학교명": "신영초등학교",
        "학교급구분": "초등학교",
        "설립일자": "1966-03-21",
        "설립형태": "공립",
        "본교분교구분": "본교",
        "소재지지번주소": "강원특별자치도 강릉시 주문진읍 향호리 1187-7",
        "소재지도로명주소": "강원특별자치도 강릉시 주문진읍 주문북로 160",
        "시도교육청코드": 7801000,
        "시도교육청명": "강원특별자치도교육청",
        "교육지원청명": "강원특별자치도강릉교육지원청",
        "생성일자": "2013-11-29",
        "변경일자": "2025-10-25",
        "데이터기준일자": "2026-03-20",
        "제공기관코드": "B554398",
        "제공기관명": "한국교육시설안전원"
      }
    },
    {
      "type": "Feature",
      "geometry": {
        "type": "Point",
        "coordinates": [
          128.7873096,
          37.85361534
        ]
      },
      "properties": {
        "학교ID": "B000004946",
        "학교명": "신왕초등학교",
        "학교급구분": "초등학교",
        "설립일자": "1965-03-01",
        "설립형태": "공립",
        "본교분교구분": "본교",
        "소재지지번주소": "강원특별자치도 강릉시 연곡면 행정리 226-4",
        "소재지도로명주소": "강원특별자치도 강릉시 연곡면 진고개로 2265-11",
        "시도교육청코드": 7801000,
        "시도교육청명": "강원특별자치도교육청",
        "교육지원청명": "강원특별자치도강릉교육지원청",
        "생성일자": "2013-11-29",
        "변경일자": "2025-10-25",
        "데이터기준일자": "2026-03-20",
        "제공기관코드": "B554398",
        "제공기관명": "한국교육시설안전원"
      }
    },
    {
      "type": "Feature",
      "geometry": {
        "type": "Point",
        "coordinates": [
          128.8292866,
          37.85709645
        ]
      },
      "properties": {
        "학교ID": "B000004945",
        "학교명": "연곡초등학교",
        "학교급구분": "초등학교",
        "설립일자": "1934-03-10",
        "설립형태": "공립",
        "본교분교구분": "본교",
        "소재지지번주소": "강원특별자치도 강릉시 연곡면 동덕리 959",
        "소재지도로명주소": "강원특별자치도 강릉시 연곡면 진고개로 2656",
        "시도교육청코드": 7801000,
        "시도교육청명": "강원특별자치도교육청",
        "교육지원청명": "강원특별자치도강릉교육지원청",
        "생성일자": "2013-11-29",
        "변경일자": "2025-10-25",
        "데이터기준일자": "2026-03-20",
        "제공기관코드": "B554398",
        "제공기관명": "한국교육시설안전원"
      }
    },
    {
      "type": "Feature",
      "geometry": {
        "type": "Point",
        "coordinates": [
          128.8861601,
          37.76044419
        ]
      },
      "properties": {
        "학교ID": "B000004921",
        "학교명": "영동초등학교",
        "학교급구분": "초등학교",
        "설립일자": "1985-06-07",
        "설립형태": "공립",
        "본교분교구분": "본교",
        "소재지지번주소": "강원특별자치도 강릉시 교동 1038",
        "소재지도로명주소": "강원특별자치도 강릉시 화부산로 28",
        "시도교육청코드": 7801000,
        "시도교육청명": "강원특별자치도교육청",
        "교육지원청명": "강원특별자치도강릉교육지원청",
        "생성일자": "2013-11-29",
        "변경일자": "2025-10-25",
        "데이터기준일자": "2026-03-20",
        "제공기관코드": "B554398",
        "제공기관명": "한국교육시설안전원"
      }
    },
    {
      "type": "Feature",
      "geometry": {
        "type": "Point",
        "coordinates": [
          129.0347767,
          37.6094088
        ]
      },
      "properties": {
        "학교ID": "B000004940",
        "학교명": "옥계초등학교",
        "학교급구분": "초등학교",
        "설립일자": "1920-09-01",
        "설립형태": "공립",
        "본교분교구분": "본교",
        "소재지지번주소": "강원특별자치도 강릉시 옥계면 현내리 344-1",
        "소재지도로명주소": "강원특별자치도 강릉시 옥계면 옥계로 1074",
        "시도교육청코드": 7801000,
        "시도교육청명": "강원특별자치도교육청",
        "교육지원청명": "강원특별자치도강릉교육지원청",
        "생성일자": "2013-11-29",
        "변경일자": "2025-10-25",
        "데이터기준일자": "2026-03-20",
        "제공기관코드": "B554398",
        "제공기관명": "한국교육시설안전원"
      }
    },
    {
      "type": "Feature",
      "geometry": {
        "type": "Point",
        "coordinates": [
          129.0434718,
          37.63495713
        ]
      },
      "properties": {
        "학교ID": "B000004939",
        "학교명": "옥계초등학교금진분교장",
        "학교급구분": "초등학교",
        "설립일자": "1965-04-10",
        "설립형태": "공립",
        "본교분교구분": "분교",
        "소재지지번주소": "강원특별자치도 강릉시 옥계면 금진리 417",
        "소재지도로명주소": "강원특별자치도 강릉시 옥계면 금진안길 2",
        "시도교육청코드": 7801000,
        "시도교육청명": "강원특별자치도교육청",
        "교육지원청명": "강원특별자치도강릉교육지원청",
        "생성일자": "2013-11-29",
        "변경일자": "2025-10-25",
        "데이터기준일자": "2026-03-20",
        "제공기관코드": "B554398",
        "제공기관명": "한국교육시설안전원"
      }
    },
    {
      "type": "Feature",
      "geometry": {
        "type": "Point",
        "coordinates": [
          128.9027168,
          37.75683221
        ]
      },
      "properties": {
        "학교ID": "B000004924",
        "학교명": "옥천초등학교",
        "학교급구분": "초등학교",
        "설립일자": "1943-07-06",
        "설립형태": "공립",
        "본교분교구분": "본교",
        "소재지지번주소": "강원특별자치도 강릉시 옥천동 111",
        "소재지도로명주소": "강원특별자치도 강릉시 수문길 25",
        "시도교육청코드": 7801000,
        "시도교육청명": "강원특별자치도교육청",
        "교육지원청명": "강원특별자치도강릉교육지원청",
        "생성일자": "2013-11-29",
        "변경일자": "2025-10-25",
        "데이터기준일자": "2026-03-20",
        "제공기관코드": "B554398",
        "제공기관명": "한국교육시설안전원"
      }
    },
    {
      "type": "Feature",
      "geometry": {
        "type": "Point",
        "coordinates": [
          128.8368585,
          37.67359898
        ]
      },
      "properties": {
        "학교ID": "B000004948",
        "학교명": "왕산초등학교",
        "학교급구분": "초등학교",
        "설립일자": "1936-09-25",
        "설립형태": "공립",
        "본교분교구분": "본교",
        "소재지지번주소": "강원특별자치도 강릉시 왕산면 도마리 595",
        "소재지도로명주소": "강원특별자치도 강릉시 왕산면 백두대간로 2011-8",
        "시도교육청코드": 7801000,
        "시도교육청명": "강원특별자치도교육청",
        "교육지원청명": "강원특별자치도강릉교육지원청",
        "생성일자": "2013-11-29",
        "변경일자": "2025-10-25",
        "데이터기준일자": "2026-03-20",
        "제공기관코드": "B554398",
        "제공기관명": "한국교육시설안전원"
      }
    },
    {
      "type": "Feature",
      "geometry": {
        "type": "Point",
        "coordinates": [
          128.9375871,
          37.7297797
        ]
      },
      "properties": {
        "학교ID": "B000004930",
        "학교명": "운산초등학교",
        "학교급구분": "초등학교",
        "설립일자": "1949-01-31",
        "설립형태": "공립",
        "본교분교구분": "분교",
        "소재지지번주소": "강원특별자치도 강릉시 운산동 148",
        "소재지도로명주소": "강원특별자치도 강릉시 운산길 79-15",
        "시도교육청코드": 7801000,
        "시도교육청명": "강원특별자치도교육청",
        "교육지원청명": "강원특별자치도강릉교육지원청",
        "생성일자": "2013-11-29",
        "변경일자": "2025-10-25",
        "데이터기준일자": "2026-03-20",
        "제공기관코드": "B554398",
        "제공기관명": "한국교육시설안전원"
      }
    },
    {
      "type": "Feature",
      "geometry": {
        "type": "Point",
        "coordinates": [
          128.8586163,
          37.83710042
        ]
      },
      "properties": {
        "학교ID": "B000004944",
        "학교명": "운양초등학교",
        "학교급구분": "초등학교",
        "설립일자": "1943-07-30",
        "설립형태": "공립",
        "본교분교구분": "본교",
        "소재지지번주소": "강원특별자치도 강릉시 사천면 판교리 254",
        "소재지도로명주소": "강원특별자치도 강릉시 사천면 이설당1길 36",
        "시도교육청코드": 7801000,
        "시도교육청명": "강원특별자치도교육청",
        "교육지원청명": "강원특별자치도강릉교육지원청",
        "생성일자": "2013-11-29",
        "변경일자": "2025-10-25",
        "데이터기준일자": "2026-03-20",
        "제공기관코드": "B554398",
        "제공기관명": "한국교육시설안전원"
      }
    },
    {
      "type": "Feature",
      "geometry": {
        "type": "Point",
        "coordinates": [
          128.8711009,
          37.76001124
        ]
      },
      "properties": {
        "학교ID": "B000026210",
        "학교명": "유천초등학교",
        "학교급구분": "초등학교",
        "설립일자": "2020-03-01",
        "설립형태": "공립",
        "본교분교구분": "본교",
        "소재지지번주소": "강원특별자치도 강릉시 유천동 766",
        "소재지도로명주소": "강원특별자치도 강릉시 선수촌로 100",
        "시도교육청코드": 7801000,
        "시도교육청명": "강원특별자치도교육청",
        "교육지원청명": "강원특별자치도강릉교육지원청",
        "생성일자": "2013-11-29",
        "변경일자": "2025-10-25",
        "데이터기준일자": "2026-03-20",
        "제공기관코드": "B554398",
        "제공기관명": "한국교육시설안전원"
      }
    },
    {
      "type": "Feature",
      "geometry": {
        "type": "Point",
        "coordinates": [
          128.8816262,
          37.76623849
        ]
      },
      "properties": {
        "학교ID": "B000004920",
        "학교명": "율곡초등학교",
        "학교급구분": "초등학교",
        "설립일자": "2000-03-01",
        "설립형태": "공립",
        "본교분교구분": "본교",
        "소재지지번주소": "강원특별자치도 강릉시 교동 1851",
        "소재지도로명주소": "강원특별자치도 강릉시 원대로 129",
        "시도교육청코드": 7801000,
        "시도교육청명": "강원특별자치도교육청",
        "교육지원청명": "강원특별자치도강릉교육지원청",
        "생성일자": "2013-11-29",
        "변경일자": "2025-10-25",
        "데이터기준일자": "2026-03-20",
        "제공기관코드": "B554398",
        "제공기관명": "한국교육시설안전원"
      }
    },
    {
      "type": "Feature",
      "geometry": {
        "type": "Point",
        "coordinates": [
          129.0336174,
          37.68735318
        ]
      },
      "properties": {
        "학교ID": "B000004938",
        "학교명": "정동초등학교",
        "학교급구분": "초등학교",
        "설립일자": "1940-11-03",
        "설립형태": "공립",
        "본교분교구분": "본교",
        "소재지지번주소": "강원특별자치도 강릉시 강동면 정동진리 184",
        "소재지도로명주소": "강원특별자치도 강릉시 강동면 헌화로 1055",
        "시도교육청코드": 7801000,
        "시도교육청명": "강원특별자치도교육청",
        "교육지원청명": "강원특별자치도강릉교육지원청",
        "생성일자": "2013-11-29",
        "변경일자": "2025-10-25",
        "데이터기준일자": "2026-03-20",
        "제공기관코드": "B554398",
        "제공기관명": "한국교육시설안전원"
      }
    },
    {
      "type": "Feature",
      "geometry": {
        "type": "Point",
        "coordinates": [
          128.8266399,
          37.88688223
        ]
      },
      "properties": {
        "학교ID": "B000004931",
        "학교명": "주문진초등학교",
        "학교급구분": "초등학교",
        "설립일자": "1919-10-01",
        "설립형태": "공립",
        "본교분교구분": "본교",
        "소재지지번주소": "강원특별자치도 강릉시 주문진읍 교항리 161",
        "소재지도로명주소": "강원특별자치도 강릉시 주문진읍 주문로 26",
        "시도교육청코드": 7801000,
        "시도교육청명": "강원특별자치도교육청",
        "교육지원청명": "강원특별자치도강릉교육지원청",
        "생성일자": "2013-11-29",
        "변경일자": "2025-10-25",
        "데이터기준일자": "2026-03-20",
        "제공기관코드": "B554398",
        "제공기관명": "한국교육시설안전원"
      }
    },
    {
      "type": "Feature",
      "geometry": {
        "type": "Point",
        "coordinates": [
          128.8260432,
          37.89800326
        ]
      },
      "properties": {
        "학교ID": "B000004932",
        "학교명": "주영초등학교",
        "학교급구분": "초등학교",
        "설립일자": "1942-04-05",
        "설립형태": "공립",
        "본교분교구분": "본교",
        "소재지지번주소": "강원특별자치도 강릉시 주문진읍 주문리 461",
        "소재지도로명주소": "강원특별자치도 강릉시 주문진읍 약수동길 15-12",
        "시도교육청코드": 7801000,
        "시도교육청명": "강원특별자치도교육청",
        "교육지원청명": "강원특별자치도강릉교육지원청",
        "생성일자": "2013-11-29",
        "변경일자": "2025-10-25",
        "데이터기준일자": "2026-03-20",
        "제공기관코드": "B554398",
        "제공기관명": "한국교육시설안전원"
      }
    },
    {
      "type": "Feature",
      "geometry": {
        "type": "Point",
        "coordinates": [
          128.9228517,
          37.75808663
        ]
      },
      "properties": {
        "학교ID": "B000004916",
        "학교명": "중앙초등학교",
        "학교급구분": "초등학교",
        "설립일자": "1957-04-08",
        "설립형태": "공립",
        "본교분교구분": "본교",
        "소재지지번주소": "강원특별자치도 강릉시 입암동 산12",
        "소재지도로명주소": "강원특별자치도 강릉시 성덕포남로 18",
        "시도교육청코드": 7801000,
        "시도교육청명": "강원특별자치도교육청",
        "교육지원청명": "강원특별자치도강릉교육지원청",
        "생성일자": "2013-11-29",
        "변경일자": "2025-10-25",
        "데이터기준일자": "2026-03-20",
        "제공기관코드": "B554398",
        "제공기관명": "한국교육시설안전원"
      }
    },
    {
      "type": "Feature",
      "geometry": {
        "type": "Point",
        "coordinates": [
          128.913111,
          37.78168439
        ]
      },
      "properties": {
        "학교ID": "B000004912",
        "학교명": "초당초등학교",
        "학교급구분": "초등학교",
        "설립일자": "1992-03-01",
        "설립형태": "공립",
        "본교분교구분": "본교",
        "소재지지번주소": "강원특별자치도 강릉시 초당동 산16",
        "소재지도로명주소": "강원특별자치도 강릉시 연당길 35-11",
        "시도교육청코드": 7801000,
        "시도교육청명": "강원특별자치도교육청",
        "교육지원청명": "강원특별자치도강릉교육지원청",
        "생성일자": "2013-11-29",
        "변경일자": "2025-10-25",
        "데이터기준일자": "2026-03-20",
        "제공기관코드": "B554398",
        "제공기관명": "한국교육시설안전원"
      }
    },
    {
      "type": "Feature",
      "geometry": {
        "type": "Point",
        "coordinates": [
          128.9052949,
          37.77276174
        ]
      },
      "properties": {
        "학교ID": "B000004926",
        "학교명": "포남초등학교",
        "학교급구분": "초등학교",
        "설립일자": "1981-09-01",
        "설립형태": "공립",
        "본교분교구분": "본교",
        "소재지지번주소": "강원특별자치도 강릉시 포남동 1085",
        "소재지도로명주소": "강원특별자치도 강릉시 가작로287번길 20",
        "시도교육청코드": 7801000,
        "시도교육청명": "강원특별자치도교육청",
        "교육지원청명": "강원특별자치도강릉교육지원청",
        "생성일자": "2013-11-29",
        "변경일자": "2025-10-25",
        "데이터기준일자": "2026-03-20",
        "제공기관코드": "B554398",
        "제공기관명": "한국교육시설안전원"
      }
    },
    {
      "type": "Feature",
      "geometry": {
        "type": "Point",
        "coordinates": [
          128.9141358,
          37.77444621
        ]
      },
      "properties": {
        "학교ID": "B000004929",
        "학교명": "한솔초등학교",
        "학교급구분": "초등학교",
        "설립일자": "1997-05-06",
        "설립형태": "공립",
        "본교분교구분": "본교",
        "소재지지번주소": "강원특별자치도 강릉시 포남동 1296",
        "소재지도로명주소": "강원특별자치도 강릉시 하평2길 45",
        "시도교육청코드": 7801000,
        "시도교육청명": "강원특별자치도교육청",
        "교육지원청명": "강원특별자치도강릉교육지원청",
        "생성일자": "2013-11-29",
        "변경일자": "2025-10-25",
        "데이터기준일자": "2026-03-20",
        "제공기관코드": "B554398",
        "제공기관명": "한국교육시설안전원"
      }
    },
    {
      "type": "Feature",
      "geometry": {
        "type": "Point",
        "coordinates": [
          128.9089302,
          37.75361977
        ]
      },
      "properties": {
        "학교ID": "B000009764",
        "학교명": "강릉중학교",
        "학교급구분": "중학교",
        "설립일자": "1951-09-17",
        "설립형태": "공립",
        "본교분교구분": "본교",
        "소재지지번주소": "강원특별자치도 강릉시 입암동 497",
        "소재지도로명주소": "강원특별자치도 강릉시 강중길44번길 8",
        "시도교육청코드": 7801000,
        "시도교육청명": "강원특별자치도교육청",
        "교육지원청명": "강원특별자치도강릉교육지원청",
        "생성일자": "2013-11-29",
        "변경일자": "2025-10-25",
        "데이터기준일자": "2026-03-20",
        "제공기관코드": "B554398",
        "제공기관명": "한국교육시설안전원"
      }
    },
    {
      "type": "Feature",
      "geometry": {
        "type": "Point",
        "coordinates": [
          128.8883419,
          37.75232958
        ]
      },
      "properties": {
        "학교ID": "B000009765",
        "학교명": "강릉해람중학교",
        "학교급구분": "중학교",
        "설립일자": "1951-08-31",
        "설립형태": "공립",
        "본교분교구분": "본교",
        "소재지지번주소": "강원특별자치도 강릉시 용강동 47-8",
        "소재지도로명주소": "강원특별자치도 강릉시 명주로 25",
        "시도교육청코드": 7801000,
        "시도교육청명": "강원특별자치도교육청",
        "교육지원청명": "강원특별자치도강릉교육지원청",
        "생성일자": "2013-11-29",
        "변경일자": "2025-10-25",
        "데이터기준일자": "2026-03-20",
        "제공기관코드": "B554398",
        "제공기관명": "한국교육시설안전원"
      }
    },
    {
      "type": "Feature",
      "geometry": {
        "type": "Point",
        "coordinates": [
          128.9000107,
          37.74193219
        ]
      },
      "properties": {
        "학교ID": "B000009763",
        "학교명": "경포중학교",
        "학교급구분": "중학교",
        "설립일자": "1962-03-07",
        "설립형태": "공립",
        "본교분교구분": "본교",
        "소재지지번주소": "강원특별자치도 강릉시 노암동 462-1",
        "소재지도로명주소": "강원특별자치도 강릉시 노암등길 76",
        "시도교육청코드": 7801000,
        "시도교육청명": "강원특별자치도교육청",
        "교육지원청명": "강원특별자치도강릉교육지원청",
        "생성일자": "2013-11-29",
        "변경일자": "2025-10-25",
        "데이터기준일자": "2026-03-20",
        "제공기관코드": "B554398",
        "제공기관명": "한국교육시설안전원"
      }
    },
    {
      "type": "Feature",
      "geometry": {
        "type": "Point",
        "coordinates": [
          128.8788335,
          37.75721724
        ]
      },
      "properties": {
        "학교ID": "B000009769",
        "학교명": "관동중학교",
        "학교급구분": "중학교",
        "설립일자": "1983-06-17",
        "설립형태": "공립",
        "본교분교구분": "본교",
        "소재지지번주소": "강원특별자치도 강릉시 교동 1427",
        "소재지도로명주소": "강원특별자치도 강릉시 하슬라로20번길 14",
        "시도교육청코드": 7801000,
        "시도교육청명": "강원특별자치도교육청",
        "교육지원청명": "강원특별자치도강릉교육지원청",
        "생성일자": "2013-11-29",
        "변경일자": "2025-10-25",
        "데이터기준일자": "2026-03-20",
        "제공기관코드": "B554398",
        "제공기관명": "한국교육시설안전원"
      }
    },
    {
      "type": "Feature",
      "geometry": {
        "type": "Point",
        "coordinates": [
          128.9135576,
          37.7766622
        ]
      },
      "properties": {
        "학교ID": "B000009770",
        "학교명": "동명중학교",
        "학교급구분": "중학교",
        "설립일자": "1985-10-30",
        "설립형태": "공립",
        "본교분교구분": "본교",
        "소재지지번주소": "강원특별자치도 강릉시 포남동 424",
        "소재지도로명주소": "강원특별자치도 강릉시 보래미하길79번길 21",
        "시도교육청코드": 7801000,
        "시도교육청명": "강원특별자치도교육청",
        "교육지원청명": "강원특별자치도강릉교육지원청",
        "생성일자": "2013-11-29",
        "변경일자": "2025-10-25",
        "데이터기준일자": "2026-03-20",
        "제공기관코드": "B554398",
        "제공기관명": "한국교육시설안전원"
      }
    },
    {
      "type": "Feature",
      "geometry": {
        "type": "Point",
        "coordinates": [
          128.8454797,
          37.82832184
        ]
      },
      "properties": {
        "학교ID": "B000009773",
        "학교명": "사천중학교",
        "학교급구분": "중학교",
        "설립일자": "1955-03-29",
        "설립형태": "공립",
        "본교분교구분": "본교",
        "소재지지번주소": "강원특별자치도 강릉시 사천면 석교리 234",
        "소재지도로명주소": "강원특별자치도 강릉시 사천면 석교골말길 8",
        "시도교육청코드": 7801000,
        "시도교육청명": "강원특별자치도교육청",
        "교육지원청명": "강원특별자치도강릉교육지원청",
        "생성일자": "2013-11-29",
        "변경일자": "2025-10-25",
        "데이터기준일자": "2026-03-20",
        "제공기관코드": "B554398",
        "제공기관명": "한국교육시설안전원"
      }
    },
    {
      "type": "Feature",
      "geometry": {
        "type": "Point",
        "coordinates": [
          128.8797975,
          37.77109607
        ]
      },
      "properties": {
        "학교ID": "B000009768",
        "학교명": "솔올중학교",
        "학교급구분": "중학교",
        "설립일자": "2007-06-01",
        "설립형태": "공립",
        "본교분교구분": "본교",
        "소재지지번주소": "강원특별자치도 강릉시 교동 1798",
        "소재지도로명주소": "강원특별자치도 강릉시 솔올로 102",
        "시도교육청코드": 7801000,
        "시도교육청명": "강원특별자치도교육청",
        "교육지원청명": "강원특별자치도강릉교육지원청",
        "생성일자": "2013-11-29",
        "변경일자": "2025-10-25",
        "데이터기준일자": "2026-03-20",
        "제공기관코드": "B554398",
        "제공기관명": "한국교육시설안전원"
      }
    },
    {
      "type": "Feature",
      "geometry": {
        "type": "Point",
        "coordinates": [
          129.0331651,
          37.60274801
        ]
      },
      "properties": {
        "학교ID": "B000009772",
        "학교명": "옥계중학교",
        "학교급구분": "중학교",
        "설립일자": "1954-06-27",
        "설립형태": "공립",
        "본교분교구분": "본교",
        "소재지지번주소": "강원특별자치도 강릉시 옥계면 천남리 172",
        "소재지도로명주소": "강원특별자치도 강릉시 옥계면 천남길 38-13",
        "시도교육청코드": 7801000,
        "시도교육청명": "강원특별자치도교육청",
        "교육지원청명": "강원특별자치도강릉교육지원청",
        "생성일자": "2013-11-29",
        "변경일자": "2025-10-25",
        "데이터기준일자": "2026-03-20",
        "제공기관코드": "B554398",
        "제공기관명": "한국교육시설안전원"
      }
    },
    {
      "type": "Feature",
      "geometry": {
        "type": "Point",
        "coordinates": [
          128.8367696,
          37.67297147
        ]
      },
      "properties": {
        "학교ID": "B000009774",
        "학교명": "왕산중학교",
        "학교급구분": "중학교",
        "설립일자": "1970-06-09",
        "설립형태": "공립",
        "본교분교구분": "본교",
        "소재지지번주소": "강원특별자치도 강릉시 왕산면 도마리 325-18",
        "소재지도로명주소": "강원특별자치도 강릉시 왕산면 백두대간로 2005",
        "시도교육청코드": 7801000,
        "시도교육청명": "강원특별자치도교육청",
        "교육지원청명": "강원특별자치도강릉교육지원청",
        "생성일자": "2013-11-29",
        "변경일자": "2025-10-25",
        "데이터기준일자": "2026-03-20",
        "제공기관코드": "B554398",
        "제공기관명": "한국교육시설안전원"
      }
    },
    {
      "type": "Feature",
      "geometry": {
        "type": "Point",
        "coordinates": [
          128.8888217,
          37.77033971
        ]
      },
      "properties": {
        "학교ID": "B000009767",
        "학교명": "율곡중학교",
        "학교급구분": "중학교",
        "설립일자": "1986-03-05",
        "설립형태": "공립",
        "본교분교구분": "본교",
        "소재지지번주소": "강원특별자치도 강릉시 교동 695",
        "소재지도로명주소": "강원특별자치도 강릉시 가작로 125",
        "시도교육청코드": 7801000,
        "시도교육청명": "강원특별자치도교육청",
        "교육지원청명": "강원특별자치도강릉교육지원청",
        "생성일자": "2013-11-29",
        "변경일자": "2025-10-25",
        "데이터기준일자": "2026-03-20",
        "제공기관코드": "B554398",
        "제공기관명": "한국교육시설안전원"
      }
    },
    {
      "type": "Feature",
      "geometry": {
        "type": "Point",
        "coordinates": [
          128.8278508,
          37.88028383
        ]
      },
      "properties": {
        "학교ID": "B000009771",
        "학교명": "주문진중학교",
        "학교급구분": "중학교",
        "설립일자": "1951-08-31",
        "설립형태": "공립",
        "본교분교구분": "본교",
        "소재지지번주소": "강원특별자치도 강릉시 주문진읍 교항리 48-119",
        "소재지도로명주소": "강원특별자치도 강릉시 주문진읍 연주로 294",
        "시도교육청코드": 7801000,
        "시도교육청명": "강원특별자치도교육청",
        "교육지원청명": "강원특별자치도강릉교육지원청",
        "생성일자": "2013-11-29",
        "변경일자": "2025-10-25",
        "데이터기준일자": "2026-03-20",
        "제공기관코드": "B554398",
        "제공기관명": "한국교육시설안전원"
      }
    },
    {
      "type": "Feature",
      "geometry": {
        "type": "Point",
        "coordinates": [
          128.9070618,
          37.77201703
        ]
      },
      "properties": {
        "학교ID": "B000009766",
        "학교명": "하슬라중학교",
        "학교급구분": "중학교",
        "설립일자": "1981-03-01",
        "설립형태": "공립",
        "본교분교구분": "본교",
        "소재지지번주소": "강원특별자치도 강릉시 포남동 1086",
        "소재지도로명주소": "강원특별자치도 강릉시 보래미길 9",
        "시도교육청코드": 7801000,
        "시도교육청명": "강원특별자치도교육청",
        "교육지원청명": "강원특별자치도강릉교육지원청",
        "생성일자": "2013-11-29",
        "변경일자": "2025-10-25",
        "데이터기준일자": "2026-03-20",
        "제공기관코드": "B554398",
        "제공기관명": "한국교육시설안전원"
      }
    },
    {
      "type": "Feature",
      "geometry": {
        "type": "Point",
        "coordinates": [
          128.9159872,
          37.78891804
        ]
      },
      "properties": {
        "학교ID": "B000012775",
        "학교명": "강릉고등학교",
        "학교급구분": "고등학교",
        "설립일자": "1962-03-07",
        "설립형태": "공립",
        "본교분교구분": "본교",
        "소재지지번주소": "강원특별자치도 강릉시 초당동 57-2",
        "소재지도로명주소": "강원특별자치도 강릉시 강릉대로587번길 68",
        "시도교육청코드": 7801000,
        "시도교육청명": "강원특별자치도교육청",
        "교육지원청명": "강원특별자치도강릉교육지원청",
        "생성일자": "2013-11-29",
        "변경일자": "2025-10-25",
        "데이터기준일자": "2026-03-20",
        "제공기관코드": "B554398",
        "제공기관명": "한국교육시설안전원"
      }
    },
    {
      "type": "Feature",
      "geometry": {
        "type": "Point",
        "coordinates": [
          128.8938677,
          37.76314126
        ]
      },
      "properties": {
        "학교ID": "B000012779",
        "학교명": "강릉명륜고등학교",
        "학교급구분": "고등학교",
        "설립일자": "1963-12-14",
        "설립형태": "사립",
        "본교분교구분": "본교",
        "소재지지번주소": "강원특별자치도 강릉시 교동 236",
        "소재지도로명주소": "강원특별자치도 강릉시 율곡로 2920-8",
        "시도교육청코드": 7801000,
        "시도교육청명": "강원특별자치도교육청",
        "교육지원청명": "강원특별자치도강릉교육지원청",
        "생성일자": "2013-11-29",
        "변경일자": "2025-10-25",
        "데이터기준일자": "2026-03-20",
        "제공기관코드": "B554398",
        "제공기관명": "한국교육시설안전원"
      }
    },
    {
      "type": "Feature",
      "geometry": {
        "type": "Point",
        "coordinates": [
          128.8700327,
          37.77563062
        ]
      },
      "properties": {
        "학교ID": "B000012781",
        "학교명": "강릉문성고등학교",
        "학교급구분": "고등학교",
        "설립일자": "1988-03-01",
        "설립형태": "사립",
        "본교분교구분": "본교",
        "소재지지번주소": "강원특별자치도 강릉시 지변동 산54",
        "소재지도로명주소": "강원특별자치도 강릉시 지변길 158",
        "시도교육청코드": 7801000,
        "시도교육청명": "강원특별자치도교육청",
        "교육지원청명": "강원특별자치도강릉교육지원청",
        "생성일자": "2013-11-29",
        "변경일자": "2025-10-25",
        "데이터기준일자": "2026-03-20",
        "제공기관코드": "B554398",
        "제공기관명": "한국교육시설안전원"
      }
    },
    {
      "type": "Feature",
      "geometry": {
        "type": "Point",
        "coordinates": [
          128.9034321,
          37.75965121
        ]
      },
      "properties": {
        "학교ID": "B000012776",
        "학교명": "강릉여자고등학교",
        "학교급구분": "고등학교",
        "설립일자": "1940-03-20",
        "설립형태": "공립",
        "본교분교구분": "본교",
        "소재지지번주소": "강원특별자치도 강릉시 옥천동 237-1",
        "소재지도로명주소": "강원특별자치도 강릉시 용지로 107",
        "시도교육청코드": 7801000,
        "시도교육청명": "강원특별자치도교육청",
        "교육지원청명": "강원특별자치도강릉교육지원청",
        "생성일자": "2013-11-29",
        "변경일자": "2025-10-25",
        "데이터기준일자": "2026-03-20",
        "제공기관코드": "B554398",
        "제공기관명": "한국교육시설안전원"
      }
    },
    {
      "type": "Feature",
      "geometry": {
        "type": "Point",
        "coordinates": [
          128.8307453,
          37.88054161
        ]
      },
      "properties": {
        "학교ID": "B000011554",
        "학교명": "강릉정보공업고등학교",
        "학교급구분": "고등학교",
        "설립일자": "1970-03-02",
        "설립형태": "공립",
        "본교분교구분": "본교",
        "소재지지번주소": "강원특별자치도 강릉시 주문진읍 교항리 48-123",
        "소재지도로명주소": "강원특별자치도 강릉시 주문진읍 학교길 26",
        "시도교육청코드": 7801000,
        "시도교육청명": "강원특별자치도교육청",
        "교육지원청명": "강원특별자치도강릉교육지원청",
        "생성일자": "2013-11-29",
        "변경일자": "2025-10-25",
        "데이터기준일자": "2026-03-20",
        "제공기관코드": "B554398",
        "제공기관명": "한국교육시설안전원"
      }
    },
    {
      "type": "Feature",
      "geometry": {
        "type": "Point",
        "coordinates": [
          128.8897642,
          37.76013262
        ]
      },
      "properties": {
        "학교ID": "B000012777",
        "학교명": "강릉제일고등학교",
        "학교급구분": "고등학교",
        "설립일자": "1938-03-19",
        "설립형태": "공립",
        "본교분교구분": "본교",
        "소재지지번주소": "강원특별자치도 강릉시 교동 886",
        "소재지도로명주소": "강원특별자치도 강릉시 화부산로8번길 37",
        "시도교육청코드": 7801000,
        "시도교육청명": "강원특별자치도교육청",
        "교육지원청명": "강원특별자치도강릉교육지원청",
        "생성일자": "2013-11-29",
        "변경일자": "2025-10-25",
        "데이터기준일자": "2026-03-20",
        "제공기관코드": "B554398",
        "제공기관명": "한국교육시설안전원"
      }
    },
    {
      "type": "Feature",
      "geometry": {
        "type": "Point",
        "coordinates": [
          128.9150334,
          37.75736497
        ]
      },
      "properties": {
        "학교ID": "B000011553",
        "학교명": "강릉중앙고등학교",
        "학교급구분": "고등학교",
        "설립일자": "1928-06-15",
        "설립형태": "공립",
        "본교분교구분": "본교",
        "소재지지번주소": "강원특별자치도 강릉시 입암동 533",
        "소재지도로명주소": "강원특별자치도 강릉시 강변로 422",
        "시도교육청코드": 7801000,
        "시도교육청명": "강원특별자치도교육청",
        "교육지원청명": "강원특별자치도강릉교육지원청",
        "생성일자": "2013-11-29",
        "변경일자": "2025-10-25",
        "데이터기준일자": "2026-03-20",
        "제공기관코드": "B554398",
        "제공기관명": "한국교육시설안전원"
      }
    },
    {
      "type": "Feature",
      "geometry": {
        "type": "Point",
        "coordinates": [
          128.8645411,
          37.72193969
        ]
      },
      "properties": {
        "학교ID": "B000011872",
        "학교명": "강원예술고등학교",
        "학교급구분": "고등학교",
        "설립일자": "2001-03-01",
        "설립형태": "공립",
        "본교분교구분": "본교",
        "소재지지번주소": "강원특별자치도 강릉시 구정면 제비리 132-2",
        "소재지도로명주소": "강원특별자치도 강릉시 구정면 칠봉로 670-34",
        "시도교육청코드": 7801000,
        "시도교육청명": "강원특별자치도교육청",
        "교육지원청명": "강원특별자치도강릉교육지원청",
        "생성일자": "2013-11-29",
        "변경일자": "2025-10-25",
        "데이터기준일자": "2026-03-20",
        "제공기관코드": "B554398",
        "제공기관명": "한국교육시설안전원"
      }
    },
    {
      "type": "Feature",
      "geometry": {
        "type": "Point",
        "coordinates": [
          128.8870353,
          37.764332
        ]
      },
      "properties": {
        "학교ID": "B000012780",
        "학교명": "강일여자고등학교",
        "학교급구분": "고등학교",
        "설립일자": "1967-10-05",
        "설립형태": "사립",
        "본교분교구분": "본교",
        "소재지지번주소": "강원특별자치도 강릉시 교동 1133-2",
        "소재지도로명주소": "강원특별자치도 강릉시 화부산로 89",
        "시도교육청코드": 7801000,
        "시도교육청명": "강원특별자치도교육청",
        "교육지원청명": "강원특별자치도강릉교육지원청",
        "생성일자": "2013-11-29",
        "변경일자": "2025-10-25",
        "데이터기준일자": "2026-03-20",
        "제공기관코드": "B554398",
        "제공기관명": "한국교육시설안전원"
      }
    },
    {
      "type": "Feature",
      "geometry": {
        "type": "Point",
        "coordinates": [
          128.9160576,
          37.78170517
        ]
      },
      "properties": {
        "학교ID": "B000012778",
        "학교명": "경포고등학교",
        "학교급구분": "고등학교",
        "설립일자": "1983-03-01",
        "설립형태": "공립",
        "본교분교구분": "본교",
        "소재지지번주소": "강원특별자치도 강릉시 포남동 21",
        "소재지도로명주소": "강원특별자치도 강릉시 강릉대로547번길 14",
        "시도교육청코드": 7801000,
        "시도교육청명": "강원특별자치도교육청",
        "교육지원청명": "강원특별자치도강릉교육지원청",
        "생성일자": "2013-11-29",
        "변경일자": "2025-10-25",
        "데이터기준일자": "2026-03-20",
        "제공기관코드": "B554398",
        "제공기관명": "한국교육시설안전원"
      }
    },
    {
      "type": "Feature",
      "geometry": {
        "type": "Point",
        "coordinates": [
          128.8301949,
          37.88135669
        ]
      },
      "properties": {
        "학교ID": "B000012782",
        "학교명": "주문진고등학교",
        "학교급구분": "고등학교",
        "설립일자": "1988-06-05",
        "설립형태": "공립",
        "본교분교구분": "본교",
        "소재지지번주소": "강원특별자치도 강릉시 주문진읍 교항리 48-194",
        "소재지도로명주소": "강원특별자치도 강릉시 주문진읍 학교길 28",
        "시도교육청코드": 7801000,
        "시도교육청명": "강원특별자치도교육청",
        "교육지원청명": "강원특별자치도강릉교육지원청",
        "생성일자": "2013-11-29",
        "변경일자": "2025-10-25",
        "데이터기준일자": "2026-03-20",
        "제공기관코드": "B554398",
        "제공기관명": "한국교육시설안전원"
      }
    },
    {
      "type": "Feature",
      "geometry": {
        "type": "Point",
        "coordinates": [
          128.931551,
          37.778999
        ]
      },
      "properties": {
        "학교명": "강릉오성학교",
        "학교급구분": "특수학교"
      }
    }
  ]
}